{
"type": "FeatureCollection",
"name": "climas",
"crs": { "type": "name", "properties": { "name": "urn:ogc:def:crs:EPSG::4674" } },
"features": [
{ "type": "Feature", "properties": { "id": 0, "cod_clima": "Tr”osb", "nm_clima": "Tropical Úmido Litorâneo Sul do Brasil", "dominio": "Tropical", "subdominio": "Úmido", "classificacao": "Tropical Úmido", "tipo": "Litorâneo Sul do Brasil", "area_km2": 2.46 }, "geometry": { "type": "MultiPolygon", "coordinates": [ [ [ [ -42.897205599159008, -22.869635428032566 ], [ -42.889398768926092, -22.869635428032566 ], [ -42.890144, -22.8697827 ], [ -42.8913048, -22.8699796 ], [ -42.8922919, -22.870147 ], [ -42.8933635, -22.8703833 ], [ -42.8942363, -22.8706702 ], [ -42.8950731, -22.8711245 ], [ -42.8959003, -22.871661 ], [ -42.8963899, -22.8720776 ], [ -42.897205599159008, -22.872771640030177 ], [ -42.897205599159008, -22.869635428032566 ] ] ], [ [ [ -43.055538931876129, -22.869635428032566 ], [ -43.055538931876129, -22.861302094116311 ], [ -43.04720559885925, -22.861302094116311 ], [ -43.04720559885925, -22.852968761099433 ], [ -43.038872265842372, -22.852968761099433 ], [ -43.038872265842372, -22.869635428032566 ], [ -43.055538931876129, -22.869635428032566 ] ] ] ] } },
{ "type": "Feature", "properties": { "id": 1, "cod_clima": "Tr*osb ", "nm_clima": "Tropical Semisseco Litorâneo Sul do Brasil", "dominio": "Tropical", "subdominio": "Semisseco", "classificacao": "Tropical Semisseco", "tipo": "Litorâneo Sul do Brasil", "area_km2": 73.56 }, "geometry": { "type": "MultiPolygon", "coordinates": [ [ [ [ -43.080538931826169, -22.861302094116311 ], [ -43.07220559880929, -22.861302094116311 ], [ -43.07220559880929, -22.866469126655971 ], [ -43.0723503, -22.8664644 ], [ -43.0725935, -22.8664391 ], [ -43.0728064, -22.8663833 ], [ -43.0729635, -22.8663428 ], [ -43.0735818, -22.8659931 ], [ -43.0737794, -22.8658816 ], [ -43.0739432, -22.8658359 ], [ -43.0741787, -22.865808 ], [ -43.0743503, -22.865788 ], [ -43.0747255, -22.865772 ], [ -43.0751526, -22.8657401 ], [ -43.0755079, -22.8656722 ], [ -43.075927, -22.8656084 ], [ -43.0761944, -22.8655645 ], [ -43.076406, -22.8655006 ], [ -43.0766056, -22.8654248 ], [ -43.0768451, -22.865329 ], [ -43.0770207, -22.865305 ], [ -43.0772642, -22.865317 ], [ -43.0775276, -22.865325 ], [ -43.0777352, -22.865337 ], [ -43.0778788, -22.8653634 ], [ -43.0780535, -22.8653956 ], [ -43.0781862, -22.8653809 ], [ -43.0783748, -22.8652919 ], [ -43.0783978, -22.8652811 ], [ -43.0786892, -22.8651893 ], [ -43.0793238, -22.8649338 ], [ -43.0795871, -22.8648186 ], [ -43.0799625, -22.8646544 ], [ -43.080127, -22.8645908 ], [ -43.0802707, -22.8645353 ], [ -43.080538931826169, -22.864431579515816 ], [ -43.080538931826169, -22.861302094116311 ] ] ], [ [ [ -42.988872265942319, -22.827968761149322 ], [ -42.988872265942319, -22.819635428132429 ], [ -42.980538932026064, -22.819635428132429 ], [ -42.980538932026064, -22.827968761149322 ], [ -42.988872265942319, -22.827968761149322 ] ] ], [ [ [ -43.013872265892246, -22.777968761249269 ], [ -43.022205598909238, -22.777968761249269 ], [ -43.022205598909238, -22.769635428232377 ], [ -43.013872265892246, -22.769635428232377 ], [ -43.013872265892246, -22.777968761249269 ] ] ], [ [ [ -42.88887226614213, -22.861302094116311 ], [ -42.897205599159008, -22.861302094116311 ], [ -42.897205599159008, -22.869635428032566 ], [ -42.963872265992194, -22.869635428032566 ], [ -42.963872265992194, -22.861302094116311 ], [ -42.94720559905906, -22.861302094116311 ], [ -42.94720559905906, -22.852968761099433 ], [ -42.963872265992194, -22.852968761099433 ], [ -42.963872265992194, -22.844635428082455 ], [ -42.972205599009186, -22.844635428082455 ], [ -42.972205599009186, -22.852968761099433 ], [ -43.005538931976076, -22.852968761099433 ], [ -43.005538931976076, -22.844635428082455 ], [ -43.013872265892246, -22.844635428082455 ], [ -43.013872265892246, -22.836302094166285 ], [ -43.04720559885925, -22.836302094166285 ], [ -43.04720559885925, -22.827968761149322 ], [ -43.038872265842372, -22.827968761149322 ], [ -43.038872265842372, -22.819635428132429 ], [ -43.005538931976076, -22.819635428132429 ], [ -43.005538931976076, -22.827968761149322 ], [ -42.997205598959198, -22.827968761149322 ], [ -42.997205598959198, -22.836302094166285 ], [ -42.980538932026064, -22.836302094166285 ], [ -42.980538932026064, -22.827968761149322 ], [ -42.955538932076024, -22.827968761149322 ], [ -42.955538932076024, -22.819635428132429 ], [ -42.94720559905906, -22.819635428132429 ], [ -42.94720559905906, -22.802968761199295 ], [ -42.938872266042182, -22.802968761199295 ], [ -42.938872266042182, -22.800821327111763 ], [ -42.9388716, -22.8008225 ], [ -42.9388585, -22.8008745 ], [ -42.9388287, -22.8010177 ], [ -42.9387842, -22.801232 ], [ -42.9387535, -22.8014229 ], [ -42.9387444, -22.8015044 ], [ -42.9387227, -22.8016672 ], [ -42.9387075, -22.8017816 ], [ -42.9387067, -22.8018058 ], [ -42.9386916, -22.8019812 ], [ -42.938684, -22.8020701 ], [ -42.9386841, -22.8023383 ], [ -42.9386843, -22.8023473 ], [ -42.9386909, -22.8025991 ], [ -42.9386733, -22.8026149 ], [ -42.9344096, -22.8063398 ], [ -42.9316101, -22.8087854 ], [ -42.9311636, -22.8091755 ], [ -42.9254746, -22.8141454 ], [ -42.9220008, -22.8171801 ], [ -42.9220093, -22.8172021 ], [ -42.9220249, -22.8172424 ], [ -42.9220031, -22.8174769 ], [ -42.9219918, -22.8175085 ], [ -42.9219911, -22.8176108 ], [ -42.9219947, -22.8176811 ], [ -42.9220071, -22.8179265 ], [ -42.9219011, -22.8180908 ], [ -42.9216449, -22.8183718 ], [ -42.921457, -22.8185248 ], [ -42.9213719, -22.818597 ], [ -42.9210379, -22.8187878 ], [ -42.9207563, -22.8189543 ], [ -42.9205586, -22.819159 ], [ -42.9204667, -22.8192778 ], [ -42.9204093, -22.8193581 ], [ -42.9203828, -22.8193951 ], [ -42.9202665, -22.8195436 ], [ -42.9202307, -22.8195894 ], [ -42.9201382, -22.8197078 ], [ -42.9200247, -22.8197352 ], [ -42.9198337, -22.819793 ], [ -42.9196694, -22.8198937 ], [ -42.9194025, -22.8199875 ], [ -42.9191095, -22.8200176 ], [ -42.9188426, -22.8200151 ], [ -42.9186754, -22.8199636 ], [ -42.9185097, -22.8198913 ], [ -42.9183701, -22.8198535 ], [ -42.9183313, -22.8198533 ], [ -42.9179413, -22.8198507 ], [ -42.9176617, -22.8197934 ], [ -42.9175358, -22.8197803 ], [ -42.9173801, -22.8197871 ], [ -42.9171733, -22.819734 ], [ -42.9170721, -22.8196672 ], [ -42.917018, -22.8196658 ], [ -42.9170048, -22.8196655 ], [ -42.9168038, -22.8197197 ], [ -42.9167418, -22.8197391 ], [ -42.9164453, -22.8197949 ], [ -42.9162135, -22.8197507 ], [ -42.9158277, -22.8197017 ], [ -42.915655, -22.8196161 ], [ -42.915605, -22.8195914 ], [ -42.9153806, -22.8192953 ], [ -42.9153243, -22.8191934 ], [ -42.9152917, -22.81914 ], [ -42.9152383, -22.8189636 ], [ -42.9151998, -22.818808 ], [ -42.915051, -22.8186693 ], [ -42.915024, -22.8186419 ], [ -42.9148545, -22.8184701 ], [ -42.914658, -22.8182135 ], [ -42.9145698, -22.817993 ], [ -42.9146036, -22.817848 ], [ -42.9145071, -22.8175928 ], [ -42.9144989, -22.8175813 ], [ -42.9142897, -22.8172751 ], [ -42.9140696, -22.8169912 ], [ -42.9140611, -22.8169882 ], [ -42.9137399, -22.816874 ], [ -42.9134195, -22.8169166 ], [ -42.9132533, -22.8169662 ], [ -42.9132307, -22.8169664 ], [ -42.9132227, -22.8169664 ], [ -42.9128324, -22.8169857 ], [ -42.9125053, -22.8169948 ], [ -42.9121299, -22.8170395 ], [ -42.9119455, -22.8170247 ], [ -42.9116957, -22.8170435 ], [ -42.9115706, -22.8170576 ], [ -42.9114918, -22.8170678 ], [ -42.9112961, -22.8170546 ], [ -42.9111049, -22.8171099 ], [ -42.9109542, -22.8170659 ], [ -42.9108275, -22.8170526 ], [ -42.9108226, -22.8170521 ], [ -42.9107956, -22.817058 ], [ -42.9106795, -22.817083 ], [ -42.9105305, -22.8171273 ], [ -42.910348, -22.8171645 ], [ -42.9101386, -22.8171348 ], [ -42.9099941, -22.8171823 ], [ -42.9098691, -22.8172658 ], [ -42.9097545, -22.8172718 ], [ -42.9095455, -22.8172191 ], [ -42.9093355, -22.8172278 ], [ -42.9090875, -22.8172615 ], [ -42.9088186, -22.8173444 ], [ -42.90862, -22.8173635 ], [ -42.9084633, -22.817381 ], [ -42.9084571, -22.8173817 ], [ -42.9083276, -22.8173966 ], [ -42.9082034, -22.8173172 ], [ -42.9081162, -22.817341 ], [ -42.9081064, -22.8173439 ], [ -42.9079185, -22.8173775 ], [ -42.9077607, -22.8173985 ], [ -42.9077553, -22.8173985 ], [ -42.9077069, -22.8173982 ], [ -42.90757, -22.8174314 ], [ -42.9073784, -22.8174841 ], [ -42.9071591, -22.8175227 ], [ -42.906961, -22.8175491 ], [ -42.9069241, -22.8175489 ], [ -42.9067741, -22.8175001 ], [ -42.9066623, -22.8174637 ], [ -42.9066552, -22.8172631 ], [ -42.9066442, -22.8169848 ], [ -42.9065186, -22.8169223 ], [ -42.9063567, -22.8169082 ], [ -42.9061295, -22.8168935 ], [ -42.9043619, -22.8212165 ], [ -42.9043609, -22.8212189 ], [ -42.9033217, -22.8237605 ], [ -42.9001652, -22.8314803 ], [ -42.9001171, -22.8315979 ], [ -42.8988311, -22.8347432 ], [ -42.8960085, -22.8416463 ], [ -42.8960672, -22.8418641 ], [ -42.8960431, -22.8419256 ], [ -42.8960353, -22.8419454 ], [ -42.8960233, -22.841976 ], [ -42.8957639, -22.8426368 ], [ -42.8922197, -22.8516644 ], [ -42.88887226614213, -22.860190741224372 ], [ -42.88887226614213, -22.861302094116311 ] ], [ [ -42.94720559905906, -22.827968761149322 ], [ -42.930538932125927, -22.827968761149322 ], [ -42.930538932125927, -22.819635428132429 ], [ -42.94720559905906, -22.819635428132429 ], [ -42.94720559905906, -22.827968761149322 ] ] ], [ [ [ -42.972205599009186, -22.761302095215498 ], [ -42.988872265942319, -22.761302095215498 ], [ -42.988872265942319, -22.769635428232377 ], [ -43.013872265892246, -22.769635428232377 ], [ -43.013872265892246, -22.761302095215498 ], [ -43.030538931926117, -22.761302095215498 ], [ -43.030538931926117, -22.777968761249269 ], [ -43.038872265842372, -22.777968761249269 ], [ -43.038872265842372, -22.752968761299243 ], [ -43.038872265842372, -22.7502204078299 ], [ -43.038462245688244, -22.750104769949999 ], [ -43.0379053, -22.7499707 ], [ -43.0376822, -22.7499832 ], [ -43.0376189, -22.7501792 ], [ -43.0376307, -22.750372 ], [ -43.0373428, -22.750439 ], [ -43.0371495, -22.7502848 ], [ -43.0360693, -22.7497878 ], [ -43.0355789, -22.7494372 ], [ -43.03524264995351, -22.749196748182886 ], [ -43.030843854260439, -22.747956156951105 ], [ -43.030858415689025, -22.74787686080451 ], [ -43.0299882, -22.7477538 ], [ -43.0294023, -22.7476182 ], [ -43.0287633, -22.7470434 ], [ -43.028224, -22.7466569 ], [ -43.0279775, -22.7466037 ], [ -43.0273122, -22.7455741 ], [ -43.0268081, -22.7446289 ], [ -43.0262372, -22.7434822 ], [ -43.0266258, -22.7430911 ], [ -43.0266047, -22.7430688 ], [ -43.0262933, -22.7427104 ], [ -43.02622, -22.742626 ], [ -43.0260301, -22.7423575 ], [ -43.0258294, -22.7419627 ], [ -43.0257254, -22.7418474 ], [ -43.0256311, -22.7417013 ], [ -43.0253507, -22.7412791 ], [ -43.0250054, -22.7409807 ], [ -43.0247918, -22.7408168 ], [ -43.0242856, -22.7405121 ], [ -43.0239276, -22.7402314 ], [ -43.0234815, -22.7400561 ], [ -43.0226885, -22.7399862 ], [ -43.0223073, -22.7399692 ], [ -43.0219443, -22.740095 ], [ -43.0216561, -22.7402477 ], [ -43.0212383, -22.7405589 ], [ -43.0211061, -22.7406242 ], [ -43.0206044, -22.7410587 ], [ -43.0204586, -22.7412451 ], [ -43.0202572, -22.7414881 ], [ -43.0200906, -22.7417375 ], [ -43.0195609, -22.7425612 ], [ -43.0192041, -22.7430826 ], [ -43.0190878, -22.7432032 ], [ -43.0189805, -22.743328 ], [ -43.0187212, -22.7435635 ], [ -43.0185309, -22.7436485 ], [ -43.0182933, -22.7437097 ], [ -43.0180107, -22.7437565 ], [ -43.0178564, -22.7437773 ], [ -43.0178379, -22.7437797 ], [ -43.0176544, -22.7437146 ], [ -43.0174993, -22.7436301 ], [ -43.0172981, -22.7434893 ], [ -43.0165634, -22.7429408 ], [ -43.0163714, -22.7428022 ], [ -43.0159964, -22.7425021 ], [ -43.0158457, -22.7423938 ], [ -43.0157405, -22.7423525 ], [ -43.0155412, -22.7422571 ], [ -43.0153332, -22.7420886 ], [ -43.014949, -22.7418822 ], [ -43.0144653, -22.7418055 ], [ -43.0140294, -22.7416876 ], [ -43.0136736, -22.7416718 ], [ -43.0132573, -22.7415941 ], [ -43.0131842, -22.741578 ], [ -43.0128544, -22.7415052 ], [ -43.0126017, -22.7414071 ], [ -43.0124678, -22.7413462 ], [ -43.0123585, -22.7412669 ], [ -43.0118172, -22.7403831 ], [ -43.0117177, -22.7395983 ], [ -43.0116686, -22.7385794 ], [ -43.0115244, -22.7379227 ], [ -43.0112313, -22.7373688 ], [ -43.0111824, -22.7372763 ], [ -43.0110951, -22.7371114 ], [ -43.0109047, -22.7368547 ], [ -43.0106773, -22.7365727 ], [ -43.0102824, -22.7363305 ], [ -43.0095606, -22.736251 ], [ -43.0091509, -22.7362918 ], [ -43.0088259, -22.7364193 ], [ -43.0084041, -22.736696 ], [ -43.0081315, -22.7369734 ], [ -43.0078084, -22.7371761 ], [ -43.0074987, -22.737397 ], [ -43.0072298, -22.7374831 ], [ -43.0068395, -22.737643 ], [ -43.0065519, -22.737784 ], [ -43.0062021, -22.7378984 ], [ -43.0059564, -22.7379703 ], [ -43.0057216, -22.7380781 ], [ -43.0056048, -22.7381201 ], [ -43.0053356, -22.7381553 ], [ -43.0049132, -22.7381956 ], [ -43.00463, -22.738254 ], [ -43.0042954, -22.7383386 ], [ -43.0039032, -22.7383733 ], [ -43.0035098, -22.7383892 ], [ -43.0031199, -22.738336 ], [ -43.0027295, -22.7383516 ], [ -43.0023424, -22.7383959 ], [ -43.0019565, -22.7384599 ], [ -43.0015708, -22.7385338 ], [ -43.001194, -22.7386485 ], [ -43.0008523, -22.7386178 ], [ -43.0008043, -22.7386135 ], [ -43.0002224, -22.7385185 ], [ -42.9999012, -22.7383268 ], [ -42.999738, -22.7380358 ], [ -42.9996818, -22.7377178 ], [ -42.9996199, -22.737359 ], [ -42.9997882, -22.7370686 ], [ -43.0000564, -22.7368086 ], [ -43.0003417, -22.7364666 ], [ -43.0006141, -22.7361241 ], [ -43.0007704, -22.7358118 ], [ -43.0009, -22.735522 ], [ -43.0008847, -22.7351254 ], [ -43.000802, -22.7347707 ], [ -43.0005886, -22.7345357 ], [ -43.0005499, -22.734493 ], [ -43.0001984, -22.7343368 ], [ -42.9998146, -22.7342698 ], [ -42.9994359, -22.7341706 ], [ -42.999049, -22.7340978 ], [ -42.9986541, -22.7340983 ], [ -42.9982644, -22.7340701 ], [ -42.9978747, -22.7340868 ], [ -42.9974882, -22.7341461 ], [ -42.9970847, -22.7341932 ], [ -42.9964956, -22.7345499 ], [ -42.9963082, -22.7346843 ], [ -42.9960263, -22.7349375 ], [ -42.995808, -22.7352382 ], [ -42.9955624, -22.7355188 ], [ -42.9953145, -22.7357977 ], [ -42.9949828, -22.7359886 ], [ -42.9946351, -22.7361588 ], [ -42.9942586, -22.7362721 ], [ -42.9940223, -22.73634 ], [ -42.994018, -22.7363412 ], [ -42.993883, -22.73638 ], [ -42.9935097, -22.7364991 ], [ -42.9932769, -22.7366476 ], [ -42.993115, -22.737066 ], [ -42.9930616, -22.7373592 ], [ -42.993138, -22.7377301 ], [ -42.9933008, -22.7380618 ], [ -42.9935187, -22.7383648 ], [ -42.9937752, -22.7386411 ], [ -42.9940834, -22.738867 ], [ -42.994324, -22.7390472 ], [ -42.9946597, -22.739204 ], [ -42.9950983, -22.7393418 ], [ -42.9954746, -22.7394533 ], [ -42.9958794, -22.7395068 ], [ -42.9962956, -22.7395845 ], [ -42.9966432, -22.739688 ], [ -42.9969379, -22.7399256 ], [ -42.9972312, -22.7402056 ], [ -42.9974596, -22.7407124 ], [ -42.9973606, -22.7413937 ], [ -42.9969476, -22.74199 ], [ -42.996548, -22.7423269 ], [ -42.9959665, -22.7424901 ], [ -42.9951514, -22.7424892 ], [ -42.9943528, -22.742418 ], [ -42.9936146, -22.7424087 ], [ -42.9933289, -22.7425142 ], [ -42.992701, -22.7429244 ], [ -42.9925735, -22.7430076 ], [ -42.9925101, -22.7430631 ], [ -42.9924523, -22.7431104 ], [ -42.9923924, -22.7431569 ], [ -42.992207, -22.7434876 ], [ -42.9920194, -22.7438068 ], [ -42.9918907, -22.7440227 ], [ -42.9918115, -22.7441559 ], [ -42.9916719, -22.7445102 ], [ -42.9916077, -22.7446935 ], [ -42.9915589, -22.7449149 ], [ -42.9915919, -22.7450614 ], [ -42.9916324, -22.7452642 ], [ -42.9917448, -22.745455 ], [ -42.9917603, -22.7454813 ], [ -42.991652, -22.7456342 ], [ -42.9916321, -22.7456621 ], [ -42.9916194, -22.7456799 ], [ -42.9916166, -22.7456838 ], [ -42.9916134, -22.7456882 ], [ -42.9914065, -22.7459767 ], [ -42.991284, -22.7461648 ], [ -42.9911567, -22.7463894 ], [ -42.9910866, -22.7465007 ], [ -42.990828, -22.7467957 ], [ -42.9907465, -22.7470035 ], [ -42.9907585, -22.7471596 ], [ -42.9908679, -22.7475146 ], [ -42.9909222, -22.7476688 ], [ -42.9910518, -22.7480226 ], [ -42.9911209, -22.7482965 ], [ -42.9912012, -22.7485143 ], [ -42.9913402, -22.7487924 ], [ -42.9914849, -22.748923 ], [ -42.9915773, -22.7491168 ], [ -42.9914741, -22.7493045 ], [ -42.9913198, -22.7494975 ], [ -42.9911558, -22.749623 ], [ -42.9907628, -22.7497849 ], [ -42.9903579, -22.7498367 ], [ -42.9899628, -22.7498411 ], [ -42.9895484, -22.7498758 ], [ -42.9893801, -22.7499432 ], [ -42.9893747, -22.7499691 ], [ -42.9892003, -22.7499094 ], [ -42.9888821, -22.7497676 ], [ -42.9887266, -22.7497162 ], [ -42.9885969, -22.749697 ], [ -42.9884549, -22.7497051 ], [ -42.9884066, -22.7497078 ], [ -42.988208, -22.7497666 ], [ -42.9880807, -22.7498044 ], [ -42.9879425, -22.7498732 ], [ -42.9877934, -22.7499191 ], [ -42.987669, -22.7499298 ], [ -42.9875515, -22.7500131 ], [ -42.9874425, -22.750066 ], [ -42.9873513, -22.7501036 ], [ -42.9864983, -22.7507361 ], [ -42.9864756, -22.7507528 ], [ -42.9863765, -22.7508259 ], [ -42.9862008, -22.7509751 ], [ -42.9860872, -22.7510557 ], [ -42.9856736, -22.7513271 ], [ -42.9851749, -22.7515649 ], [ -42.9845912, -22.7518648 ], [ -42.9836905, -22.7523203 ], [ -42.9828597, -22.7527486 ], [ -42.9821291, -22.7531006 ], [ -42.9814802, -22.7534131 ], [ -42.9814042, -22.7534532 ], [ -42.9813294, -22.7534928 ], [ -42.9811089, -22.7536095 ], [ -42.9807665, -22.7538006 ], [ -42.9803999, -22.7539417 ], [ -42.9800359, -22.7541567 ], [ -42.9772085, -22.7556043 ], [ -42.9769407, -22.7556689 ], [ -42.9768718, -22.7556882 ], [ -42.9749074, -22.7562383 ], [ -42.9727066, -22.7568004 ], [ -42.972205599009186, -22.75692685689749 ], [ -42.972205599009186, -22.761302095215498 ] ] ] ] } },
{ "type": "Feature", "properties": { "id": 2, "cod_clima": "Tr**osb ", "nm_clima": "Tropical Seco Litorâneo Sul do Brasil", "dominio": "Tropical", "subdominio": "Seco", "classificacao": "Tropical Seco", "tipo": "Litorâneo Sul do Brasil", "area_km2": 102.39 }, "geometry": { "type": "Polygon", "coordinates": [ [ [ -43.101083186414172, -22.852968761099433 ], [ -43.097205598759302, -22.852968761099433 ], [ -43.097205598759302, -22.844635428082455 ], [ -43.097205598759302, -22.842084620916651 ], [ -43.0971857, -22.8420225 ], [ -43.0970498, -22.8417235 ], [ -43.097028, -22.8414366 ], [ -43.0970412, -22.8410473 ], [ -43.0970477, -22.8407777 ], [ -43.0969992, -22.8407362 ], [ -43.0970487, -22.8407375 ], [ -43.0970532, -22.8405492 ], [ -43.0971386, -22.8405276 ], [ -43.097205598759302, -22.840545157490091 ], [ -43.097205598759302, -22.8400263331737 ], [ -43.0971691, -22.8400071 ], [ -43.096861, -22.8401014 ], [ -43.0964476, -22.8401729 ], [ -43.0963349, -22.840119 ], [ -43.0962595, -22.8399819 ], [ -43.0962359, -22.8398263 ], [ -43.0962203, -22.8396409 ], [ -43.0961144, -22.8392897 ], [ -43.096214, -22.8391762 ], [ -43.0971668, -22.8396177 ], [ -43.097205598759302, -22.839628320176026 ], [ -43.097205598759302, -22.838360211061925 ], [ -43.0971482, -22.8383918 ], [ -43.0968314, -22.8381873 ], [ -43.0969554, -22.8379857 ], [ -43.0969885, -22.8378284 ], [ -43.0968508, -22.837678 ], [ -43.0967148, -22.8376794 ], [ -43.0964003, -22.8378159 ], [ -43.0956129, -22.8377205 ], [ -43.0953928, -22.8370973 ], [ -43.0952213, -22.8362686 ], [ -43.095519, -22.836179 ], [ -43.0958284, -22.8362639 ], [ -43.095992832311588, -22.836208882173132 ], [ -43.095970962766174, -22.835671983876306 ], [ -43.095762, -22.8357688 ], [ -43.0955646, -22.8358647 ], [ -43.0952684, -22.8358492 ], [ -43.0951899, -22.835699 ], [ -43.0952038, -22.8353975 ], [ -43.095303, -22.8349942 ], [ -43.0953251, -22.8349041 ], [ -43.0954079, -22.8343269 ], [ -43.0958767, -22.8337973 ], [ -43.0962981, -22.8337044 ], [ -43.0966021, -22.8338188 ], [ -43.096663786988024, -22.833842647857843 ], [ -43.09700934420146, -22.833312964240495 ], [ -43.0969417, -22.8332016 ], [ -43.0968338, -22.8329877 ], [ -43.0968206, -22.8326363 ], [ -43.0968556, -22.83235 ], [ -43.0971687, -22.8318879 ], [ -43.097205598759302, -22.831865154006397 ], [ -43.097205598759302, -22.82909443925692 ], [ -43.0971342, -22.8289917 ], [ -43.0969635, -22.8288487 ], [ -43.0969472, -22.8285427 ], [ -43.096829, -22.828331 ], [ -43.09708387377912, -22.828145692381529 ], [ -43.097058839338828, -22.828036281818168 ], [ -43.097005068333459, -22.827968761149322 ], [ -43.088872264843133, -22.827968761149322 ], [ -43.088872264843133, -22.822650969193866 ], [ -43.0887489, -22.8226268 ], [ -43.0886163, -22.8225966 ], [ -43.088402, -22.822548 ], [ -43.0883166, -22.8225097 ], [ -43.0879078, -22.8223268 ], [ -43.087474, -22.8219359 ], [ -43.087278552976052, -22.821744099994312 ], [ -43.086386578207282, -22.821455212735476 ], [ -43.0863493, -22.8214891 ], [ -43.0861328, -22.8214094 ], [ -43.08570308997615, -22.821233848804059 ], [ -43.08541060090301, -22.821139119256163 ], [ -43.0853402, -22.8211424 ], [ -43.0851586, -22.8211352 ], [ -43.0850269, -22.8212834 ], [ -43.0850103, -22.821302 ], [ -43.0848769, -22.8213281 ], [ -43.0843705, -22.8211461 ], [ -43.0841879, -22.8210798 ], [ -43.0840122, -22.821077 ], [ -43.0832981, -22.8206338 ], [ -43.0831563, -22.8205458 ], [ -43.0829284, -22.8204488 ], [ -43.0828706, -22.8205012 ], [ -43.0827934, -22.8205712 ], [ -43.0825944, -22.8204163 ], [ -43.0825486, -22.8203806 ], [ -43.0823183, -22.8202013 ], [ -43.0821572, -22.8200987 ], [ -43.0820829, -22.8200513 ], [ -43.082054, -22.8199972 ], [ -43.081726014430849, -22.819635428132429 ], [ -43.080538931826169, -22.819635428132429 ], [ -43.080538931826169, -22.81862801107853 ], [ -43.0800108, -22.818183 ], [ -43.0791387, -22.817448 ], [ -43.0786724, -22.8170539 ], [ -43.0775722, -22.816124 ], [ -43.0775128, -22.8160422 ], [ -43.0772594, -22.8156932 ], [ -43.0772458, -22.8156913 ], [ -43.0770504, -22.8156638 ], [ -43.0770369, -22.8156554 ], [ -43.0769539, -22.8156039 ], [ -43.0768492, -22.8155389 ], [ -43.0763155, -22.8150847 ], [ -43.0751014, -22.8140514 ], [ -43.0744205, -22.8134459 ], [ -43.0742874, -22.8131677 ], [ -43.0741545, -22.8128902 ], [ -43.0738932, -22.8125822 ], [ -43.0737679, -22.8124345 ], [ -43.0736439, -22.8122261 ], [ -43.0734154, -22.8118419 ], [ -43.073009194919727, -22.811302094216174 ], [ -43.07220559880929, -22.811302094216174 ], [ -43.07220559880929, -22.810285070135578 ], [ -43.066245079346913, -22.804606557046938 ], [ -43.066021530229499, -22.804141885851823 ], [ -43.0658534, -22.8039436 ], [ -43.0655663, -22.8032921 ], [ -43.0654085, -22.8031754 ], [ -43.0650793, -22.8029319 ], [ -43.0654333, -22.8024168 ], [ -43.0656265, -22.8021358 ], [ -43.0657494, -22.8021044 ], [ -43.0663618, -22.801948 ], [ -43.0664128, -22.801935 ], [ -43.0670406, -22.8016694 ], [ -43.0671594, -22.8016192 ], [ -43.0678025, -22.8012135 ], [ -43.0679321, -22.8011316 ], [ -43.0681145, -22.801023 ], [ -43.0681336, -22.8010116 ], [ -43.0682433, -22.8010064 ], [ -43.0685816, -22.8009902 ], [ -43.0692975, -22.8009332 ], [ -43.0700766, -22.8009635 ], [ -43.0701575, -22.8010156 ], [ -43.0701947, -22.8010396 ], [ -43.0702238, -22.8012639 ], [ -43.0702048, -22.8013496 ], [ -43.070171, -22.8015027 ], [ -43.0703274, -22.8016863 ], [ -43.070598486881543, -22.801819035016155 ], [ -43.071090974379658, -22.80182907813764 ], [ -43.0717706, -22.8016975 ], [ -43.071809496338318, -22.801689934840621 ], [ -43.071923857474147, -22.801651461426239 ], [ -43.0721107, -22.8015466 ], [ -43.0723065, -22.8014906 ], [ -43.0725636, -22.801417 ], [ -43.0730345, -22.8009067 ], [ -43.0732092, -22.8007832 ], [ -43.0732297, -22.8007687 ], [ -43.0732506, -22.8007681 ], [ -43.0734194, -22.8007636 ], [ -43.0734585, -22.8007625 ], [ -43.0736355, -22.8007766 ], [ -43.0737634, -22.8006846 ], [ -43.0738112, -22.8006503 ], [ -43.0741428, -22.8004363 ], [ -43.0745471, -22.8005487 ], [ -43.074858764547301, -22.800664098934767 ], [ -43.075893072892256, -22.800316136549938 ], [ -43.0760818, -22.7999908 ], [ -43.0764916, -22.7994761 ], [ -43.0769356, -22.7992843 ], [ -43.0774272, -22.7991469 ], [ -43.0775659, -22.7991376 ], [ -43.0778399, -22.799119 ], [ -43.0779484, -22.7992522 ], [ -43.0780046, -22.7993211 ], [ -43.0781291, -22.7993973 ], [ -43.0783189, -22.7994175 ], [ -43.078645, -22.7993587 ], [ -43.0789438, -22.7991317 ], [ -43.0789594, -22.7991023 ], [ -43.0790599, -22.798913 ], [ -43.0790638, -22.7989058 ], [ -43.0793301, -22.7980843 ], [ -43.079397841751735, -22.797875379485241 ], [ -43.079769970079546, -22.796092825250412 ], [ -43.0797322, -22.7959414 ], [ -43.0797786, -22.7957222 ], [ -43.0798024, -22.7956096 ], [ -43.0797766, -22.7955688 ], [ -43.0797205, -22.7954802 ], [ -43.0797249, -22.7950342 ], [ -43.0797261, -22.7949092 ], [ -43.0797131, -22.794399 ], [ -43.0797863, -22.7938693 ], [ -43.0798568, -22.793667 ], [ -43.0802286, -22.7925998 ], [ -43.0803151, -22.7923515 ], [ -43.080538931826169, -22.79181498541212 ], [ -43.080538931826169, -22.788100120696299 ], [ -43.080358505340769, -22.787259459456479 ], [ -43.079915599939596, -22.786708052655971 ], [ -43.07940420114403, -22.786302094266233 ], [ -43.07220559880929, -22.786302094266233 ], [ -43.07220559880929, -22.78237439341288 ], [ -43.071599721949582, -22.782057523535883 ], [ -43.067517638028562, -22.778473138824353 ], [ -43.067521945946481, -22.777968761249269 ], [ -43.063872265792384, -22.777968761249269 ], [ -43.063872264893035, -22.769635428232377 ], [ -43.063872264893035, -22.766089546365933 ], [ -43.062927961456239, -22.764825105694044 ], [ -43.062922046907694, -22.764821355834947 ], [ -43.0628291, -22.7647922 ], [ -43.0626389, -22.7647325 ], [ -43.062544, -22.7647367 ], [ -43.0623618, -22.7646326 ], [ -43.0621594, -22.7645207 ], [ -43.0619188, -22.7643876 ], [ -43.0619097, -22.7643826 ], [ -43.0616232, -22.7641282 ], [ -43.061473696307907, -22.763903092905416 ], [ -43.06039977113258, -22.763222217930988 ], [ -43.059155572068825, -22.762551027143786 ], [ -43.0589394, -22.7624484 ], [ -43.0588026, -22.7623761 ], [ -43.0576919, -22.7617885 ], [ -43.0574972, -22.7616854 ], [ -43.0568794, -22.7614981 ], [ -43.056232952436943, -22.761302095215498 ], [ -43.04720559885925, -22.761302095215498 ], [ -43.04720559885925, -22.757173875989125 ], [ -43.047020639696449, -22.757111082570365 ], [ -43.0469569, -22.7571206 ], [ -43.0466358, -22.7571685 ], [ -43.046342380176135, -22.756880814259009 ], [ -43.046031117542071, -22.756775140959945 ], [ -43.042832504048448, -22.753439528999973 ], [ -43.042352353119334, -22.752968761299243 ], [ -43.038872265842372, -22.752968761299243 ], [ -43.038872265842372, -22.777968761249269 ], [ -43.030538931926117, -22.777968761249269 ], [ -43.022205598909238, -22.777968761249269 ], [ -43.013872265892246, -22.777968761249269 ], [ -43.013872265892246, -22.769635428232377 ], [ -42.988872265942319, -22.769635428232377 ], [ -42.988872265942319, -22.761302095215498 ], [ -42.972205599009186, -22.761302095215498 ], [ -42.972205599009186, -22.75692685689749 ], [ -42.970423, -22.7573768 ], [ -42.9703062, -22.7573921 ], [ -42.9702037, -22.7574008 ], [ -42.9699752, -22.7574519 ], [ -42.9698736, -22.7574746 ], [ -42.9698127, -22.7574882 ], [ -42.9671803, -22.758257 ], [ -42.9668608, -22.7582821 ], [ -42.9667866, -22.7583274 ], [ -42.9666564, -22.7584036 ], [ -42.9665286, -22.7584357 ], [ -42.9663739, -22.7584245 ], [ -42.9655233, -22.7584406 ], [ -42.9655145, -22.7584415 ], [ -42.9616069, -22.7588101 ], [ -42.9615541, -22.7588776 ], [ -42.9614938, -22.7591407 ], [ -42.9617819, -22.7598913 ], [ -42.9617615, -22.7599132 ], [ -42.961589, -22.7600987 ], [ -42.9614095, -22.7602918 ], [ -42.9614024, -22.7602719 ], [ -42.9604, -22.7608079 ], [ -42.9603854, -22.7608428 ], [ -42.9599945, -22.7610658 ], [ -42.9597595, -22.7611999 ], [ -42.9589619, -22.7616551 ], [ -42.9578029, -22.7623163 ], [ -42.9575383, -22.7624674 ], [ -42.9562727, -22.7631586 ], [ -42.9550071, -22.7638499 ], [ -42.9546075, -22.764119 ], [ -42.954404, -22.764256 ], [ -42.9543964, -22.7642639 ], [ -42.9541971, -22.7644713 ], [ -42.9539978, -22.7646786 ], [ -42.9536144, -22.7651505 ], [ -42.9531542, -22.7657169 ], [ -42.9530694, -22.7658213 ], [ -42.9529845, -22.7659257 ], [ -42.9526397, -22.766378 ], [ -42.9524273, -22.7666566 ], [ -42.9523096, -22.7668109 ], [ -42.9521919, -22.7669653 ], [ -42.9514456, -22.7678761 ], [ -42.9510383, -22.7683731 ], [ -42.9510043, -22.7684146 ], [ -42.9509729, -22.7684529 ], [ -42.9509384, -22.7684951 ], [ -42.9505433, -22.7689772 ], [ -42.9502022, -22.7693935 ], [ -42.9497096, -22.7693856 ], [ -42.9487404, -22.7693703 ], [ -42.9486383, -22.7693686 ], [ -42.9479359, -22.7693575 ], [ -42.9476505, -22.769353 ], [ -42.9464723, -22.7693605 ], [ -42.945728, -22.7693653 ], [ -42.9456506, -22.7693663 ], [ -42.9449798, -22.7693751 ], [ -42.9449434, -22.7693748 ], [ -42.9447238, -22.7693727 ], [ -42.9445785, -22.7693714 ], [ -42.9444333, -22.7693702 ], [ -42.9442265, -22.7694022 ], [ -42.9441969, -22.7694221 ], [ -42.9440839, -22.7694979 ], [ -42.9440468, -22.7695228 ], [ -42.9439509, -22.7696656 ], [ -42.9439016, -22.7698149 ], [ -42.9438688, -22.7699462 ], [ -42.9438808, -22.7701709 ], [ -42.9439098, -22.7707134 ], [ -42.9439068, -22.7708017 ], [ -42.9438934, -22.7711892 ], [ -42.9437927, -22.771423 ], [ -42.9437785, -22.7714559 ], [ -42.94367, -22.7716384 ], [ -42.943495, -22.7719327 ], [ -42.9434886, -22.7719464 ], [ -42.9434803, -22.7719584 ], [ -42.9434332, -22.7720467 ], [ -42.943326, -22.7722474 ], [ -42.9431957, -22.7724577 ], [ -42.9427159, -22.773176 ], [ -42.9415211, -22.7749645 ], [ -42.9414779, -22.7750292 ], [ -42.9414727, -22.7750369 ], [ -42.9408271, -22.7760051 ], [ -42.940811, -22.7760292 ], [ -42.9405702, -22.7763904 ], [ -42.9405241, -22.7764528 ], [ -42.9404507, -22.7765521 ], [ -42.9403201, -22.7766719 ], [ -42.9403695, -22.7769616 ], [ -42.9404154, -22.777044 ], [ -42.9405102, -22.7772139 ], [ -42.9407768, -22.7776919 ], [ -42.9408923, -22.7779298 ], [ -42.9409227, -22.7779922 ], [ -42.9411794, -22.7782876 ], [ -42.9415087, -22.778498 ], [ -42.9415621, -22.7786167 ], [ -42.9415703, -22.7786491 ], [ -42.9416112, -22.7788102 ], [ -42.9416255, -22.7792341 ], [ -42.9416274, -22.7792905 ], [ -42.9415777, -22.7795896 ], [ -42.9416004, -22.7798241 ], [ -42.9415893, -22.7798486 ], [ -42.9415367, -22.7799646 ], [ -42.9419409, -22.7803234 ], [ -42.9422673, -22.7806098 ], [ -42.9423135, -22.7807148 ], [ -42.9423992, -22.7819065 ], [ -42.9423276, -22.7823438 ], [ -42.9422887, -22.7825817 ], [ -42.9421813, -22.7827383 ], [ -42.9422064, -22.7829332 ], [ -42.942217, -22.7830396 ], [ -42.9422342, -22.7832136 ], [ -42.9422341, -22.7832172 ], [ -42.9423858, -22.7838895 ], [ -42.9424133, -22.7840076 ], [ -42.9424891, -22.7843322 ], [ -42.9422772, -22.7851155 ], [ -42.9420938, -22.7857933 ], [ -42.9420626, -22.7859182 ], [ -42.942056, -22.7859446 ], [ -42.9415075, -22.7881384 ], [ -42.9414211, -22.7884839 ], [ -42.9414288, -22.7886017 ], [ -42.9418761, -22.7896192 ], [ -42.9422992, -22.7906125 ], [ -42.942365, -22.7908021 ], [ -42.9423951, -22.7908891 ], [ -42.942483, -22.7911423 ], [ -42.9425189, -22.7912458 ], [ -42.9425933, -22.7914604 ], [ -42.9426283, -22.7917171 ], [ -42.9428787, -22.7926322 ], [ -42.9429187, -22.792851 ], [ -42.9430702, -22.7936802 ], [ -42.9432163, -22.7947981 ], [ -42.9432211, -22.7948351 ], [ -42.9423813, -22.7959035 ], [ -42.9420099, -22.7963126 ], [ -42.9418537, -22.7965365 ], [ -42.9418062, -22.7966046 ], [ -42.941801, -22.7966153 ], [ -42.9416853, -22.7967626 ], [ -42.9414068, -22.7971265 ], [ -42.9412802, -22.7973416 ], [ -42.9411903, -22.7974431 ], [ -42.9409936, -22.7976536 ], [ -42.9405462, -22.7981512 ], [ -42.9401839, -22.7986069 ], [ -42.9400962, -22.798715 ], [ -42.9400226, -22.7988169 ], [ -42.9400218, -22.798818 ], [ -42.9395817, -22.7994058 ], [ -42.9393631, -22.7996623 ], [ -42.9390494, -22.8001377 ], [ -42.9390503, -22.8001404 ], [ -42.9390545, -22.8003476 ], [ -42.9390299, -22.8004651 ], [ -42.9390182, -22.8004969 ], [ -42.938949, -22.8006862 ], [ -42.938872266042182, -22.800821327111763 ], [ -42.938872266042182, -22.802968761199295 ], [ -42.94720559905906, -22.802968761199295 ], [ -42.94720559905906, -22.819635428132429 ], [ -42.955538932076024, -22.819635428132429 ], [ -42.955538932076024, -22.827968761149322 ], [ -42.980538932026064, -22.827968761149322 ], [ -42.980538932026064, -22.836302094166285 ], [ -42.997205598959198, -22.836302094166285 ], [ -42.997205598959198, -22.827968761149322 ], [ -43.005538931976076, -22.827968761149322 ], [ -43.005538931976076, -22.819635428132429 ], [ -43.038872265842372, -22.819635428132429 ], [ -43.038872265842372, -22.827968761149322 ], [ -43.04720559885925, -22.827968761149322 ], [ -43.04720559885925, -22.836302094166285 ], [ -43.055538931876129, -22.836302094166285 ], [ -43.055538931876129, -22.844635428082455 ], [ -43.063872264893035, -22.844635428082455 ], [ -43.063872264893035, -22.852968761099433 ], [ -43.07220559880929, -22.852968761099433 ], [ -43.07220559880929, -22.861302094116311 ], [ -43.080538931826169, -22.861302094116311 ], [ -43.080538931826169, -22.864431579515816 ], [ -43.0806131, -22.8644029 ], [ -43.0814593, -22.8641195 ], [ -43.0816268, -22.8640689 ], [ -43.0817352, -22.8640362 ], [ -43.0818167, -22.8640116 ], [ -43.0818693, -22.8639958 ], [ -43.0824188, -22.8638297 ], [ -43.0824372, -22.8638241 ], [ -43.0828336, -22.8637211 ], [ -43.0833241, -22.8635936 ], [ -43.0834354, -22.8635646 ], [ -43.083451, -22.8635606 ], [ -43.0838772, -22.8634498 ], [ -43.0842334, -22.8633571 ], [ -43.0842828, -22.8633445 ], [ -43.0844427, -22.8633038 ], [ -43.0848122, -22.8632094 ], [ -43.085056, -22.8631282 ], [ -43.0850817, -22.8631197 ], [ -43.0851595, -22.8630937 ], [ -43.0856173, -22.8628663 ], [ -43.0857315, -22.8628096 ], [ -43.0857702, -22.8627903 ], [ -43.0861294, -22.8626506 ], [ -43.0861968, -22.8626333 ], [ -43.0863728, -22.8625881 ], [ -43.0864248, -22.8625748 ], [ -43.0864899, -22.8625559 ], [ -43.0866723, -22.8625029 ], [ -43.0868719, -22.8624431 ], [ -43.0868832, -22.8624395 ], [ -43.0868967, -22.8624352 ], [ -43.0871992, -22.8623393 ], [ -43.0873069, -22.862291 ], [ -43.0875576, -22.8621786 ], [ -43.0875631, -22.8621758 ], [ -43.0880254, -22.8619361 ], [ -43.088253, -22.8618563 ], [ -43.0885164, -22.8617805 ], [ -43.0888237, -22.8617605 ], [ -43.0890273, -22.8617605 ], [ -43.0892508, -22.8618124 ], [ -43.0894424, -22.8618842 ], [ -43.0897019, -22.86198 ], [ -43.0899111, -22.8620537 ], [ -43.0899853, -22.8620798 ], [ -43.0901929, -22.8621198 ], [ -43.0902886, -22.8620798 ], [ -43.0905019, -22.8618836 ], [ -43.0906918, -22.8617885 ], [ -43.0908515, -22.8617525 ], [ -43.0909265, -22.8617425 ], [ -43.0910311, -22.8617286 ], [ -43.0913185, -22.8616927 ], [ -43.0915061, -22.8616807 ], [ -43.0917496, -22.8617086 ], [ -43.0919364, -22.861697 ], [ -43.0920489, -22.8616527 ], [ -43.0921966, -22.861521 ], [ -43.0923443, -22.8614651 ], [ -43.0925758, -22.8613733 ], [ -43.0927435, -22.8612456 ], [ -43.0928632, -22.8612097 ], [ -43.0929804, -22.8611493 ], [ -43.0931426, -22.8611338 ], [ -43.0933462, -22.8611219 ], [ -43.0933926, -22.8611031 ], [ -43.0935138, -22.861054 ], [ -43.0937853, -22.8610141 ], [ -43.0940846, -22.8609622 ], [ -43.0942534, -22.860928 ], [ -43.0943193, -22.8609146 ], [ -43.09436, -22.8609063 ], [ -43.0945577, -22.860846 ], [ -43.0945955, -22.8608345 ], [ -43.0946094, -22.8608265 ], [ -43.0948725, -22.8606754 ], [ -43.0951454, -22.8605187 ], [ -43.095157, -22.860512 ], [ -43.0951863, -22.8604952 ], [ -43.0952901, -22.8605271 ], [ -43.0953884, -22.8605637 ], [ -43.095406, -22.8605703 ], [ -43.0954936, -22.860603 ], [ -43.0956373, -22.8606389 ], [ -43.09572, -22.8606471 ], [ -43.0957358, -22.8606487 ], [ -43.0957516, -22.8606503 ], [ -43.095797, -22.8606548 ], [ -43.0958959, -22.8606496 ], [ -43.0959393, -22.8606474 ], [ -43.0959487, -22.8606469 ], [ -43.0960951, -22.8606062 ], [ -43.0962513, -22.8604583 ], [ -43.0965115, -22.8602118 ], [ -43.0965876, -22.8600724 ], [ -43.0966014, -22.8600584 ], [ -43.0966712, -22.8599883 ], [ -43.0968149, -22.8599404 ], [ -43.0970144, -22.8598765 ], [ -43.0970518, -22.859855 ], [ -43.0970891, -22.8598334 ], [ -43.0971182, -22.8598166 ], [ -43.0973178, -22.859657 ], [ -43.0976172, -22.8594853 ], [ -43.0976638, -22.8594648 ], [ -43.0978527, -22.8593815 ], [ -43.0980403, -22.8592458 ], [ -43.0980889, -22.85921 ], [ -43.0981375, -22.8591742 ], [ -43.0983277, -22.8590343 ], [ -43.0984753, -22.8589544 ], [ -43.0986669, -22.8589026 ], [ -43.0989104, -22.8588626 ], [ -43.0990155, -22.858855 ], [ -43.0991206, -22.8588474 ], [ -43.0991858, -22.8588427 ], [ -43.0993615, -22.8588666 ], [ -43.099573, -22.8589225 ], [ -43.0996182, -22.8588999 ], [ -43.1003377, -22.8585402 ], [ -43.1003713, -22.8585234 ], [ -43.1004192, -22.8586112 ], [ -43.1004448, -22.8585884 ], [ -43.1008276, -22.8582463 ], [ -43.1018025, -22.8573752 ], [ -43.1027064, -22.8565675 ], [ -43.1029134, -22.8563756 ], [ -43.1029389, -22.856352 ], [ -43.1029574, -22.8563348 ], [ -43.1030135, -22.8562829 ], [ -43.1030252, -22.856272 ], [ -43.1032171, -22.8560941 ], [ -43.103280355781401, -22.856035487102911 ], [ -43.101083186414172, -22.852968761099433 ] ], [ [ -42.980538932026064, -22.819635428132429 ], [ -42.988872265942319, -22.819635428132429 ], [ -42.988872265942319, -22.827968761149322 ], [ -42.980538932026064, -22.827968761149322 ], [ -42.980538932026064, -22.819635428132429 ] ] ] } },
{ "type": "Feature", "properties": { "id": 3, "cod_clima": "Tr’osb ", "nm_clima": "Tropical Semiúmido Litorâneo Sul do Brasil", "dominio": "Tropical", "subdominio": "Semiúmido", "classificacao": "Tropical Semiúmido", "tipo": "Litorâneo Sul do Brasil", "area_km2": 66.57 }, "geometry": { "type": "MultiPolygon", "coordinates": [ [ [ [ -42.94720559905906, -22.827968761149322 ], [ -42.94720559905906, -22.819635428132429 ], [ -42.930538932125927, -22.819635428132429 ], [ -42.930538932125927, -22.827968761149322 ], [ -42.94720559905906, -22.827968761149322 ] ] ], [ [ [ -43.07220559880929, -22.861302094116311 ], [ -43.07220559880929, -22.852968761099433 ], [ -43.063872264893035, -22.852968761099433 ], [ -43.063872264893035, -22.844635428082455 ], [ -43.055538931876129, -22.844635428082455 ], [ -43.055538931876129, -22.836302094166285 ], [ -43.04720559885925, -22.836302094166285 ], [ -43.013872265892246, -22.836302094166285 ], [ -43.013872265892246, -22.844635428082455 ], [ -43.005538931976076, -22.844635428082455 ], [ -43.005538931976076, -22.852968761099433 ], [ -42.972205599009186, -22.852968761099433 ], [ -42.972205599009186, -22.844635428082455 ], [ -42.963872265992194, -22.844635428082455 ], [ -42.963872265992194, -22.852968761099433 ], [ -42.94720559905906, -22.852968761099433 ], [ -42.94720559905906, -22.861302094116311 ], [ -42.963872265992194, -22.861302094116311 ], [ -42.963872265992194, -22.869635428032566 ], [ -42.897205599159008, -22.869635428032566 ], [ -42.897205599159008, -22.872771640030177 ], [ -42.897873, -22.8733395 ], [ -42.8989613, -22.8745909 ], [ -42.8995204, -22.8755121 ], [ -42.9001742, -22.8766084 ], [ -42.900955, -22.8775683 ], [ -42.9012898, -22.8777357 ], [ -42.9016843, -22.8778194 ], [ -42.9021989, -22.877855 ], [ -42.9027722, -22.8779389 ], [ -42.9038977, -22.878413 ], [ -42.9048883, -22.8790029 ], [ -42.9055697, -22.8793736 ], [ -42.906024, -22.8794692 ], [ -42.9064544, -22.8793736 ], [ -42.9068994, -22.8790853 ], [ -42.9080564, -22.8783813 ], [ -42.9084862, -22.8781151 ], [ -42.9087498, -22.8780226 ], [ -42.9090431, -22.8780928 ], [ -42.9099333, -22.878728 ], [ -42.9102681, -22.8788714 ], [ -42.9107224, -22.8789193 ], [ -42.9117172, -22.878815 ], [ -42.9124905, -22.8790018 ], [ -42.9148459, -22.8798572 ], [ -42.9153776, -22.8800345 ], [ -42.9171939, -22.8809461 ], [ -42.9180094, -22.8813554 ], [ -42.9198132, -22.8817752 ], [ -42.9209346, -22.8818772 ], [ -42.9220922, -22.8817535 ], [ -42.9230982, -22.8821417 ], [ -42.9235887, -22.8823308 ], [ -42.9241336, -22.8825408 ], [ -42.9247612, -22.8824556 ], [ -42.925602, -22.8821666 ], [ -42.9268537, -22.8821447 ], [ -42.9271747, -22.8822581 ], [ -42.9273732, -22.8823283 ], [ -42.9281144, -22.8827638 ], [ -42.9282664, -22.8828531 ], [ -42.9286547, -22.8831944 ], [ -42.9291213, -22.883522 ], [ -42.9302929, -22.8844306 ], [ -42.9309384, -22.8849327 ], [ -42.9317872, -22.8853924 ], [ -42.9335925, -22.8863195 ], [ -42.9339969, -22.886497 ], [ -42.9345728, -22.8867498 ], [ -42.9347349, -22.8868236 ], [ -42.9350988, -22.886989 ], [ -42.9360791, -22.8874672 ], [ -42.9367851, -22.8878417 ], [ -42.9377096, -22.8882557 ], [ -42.9385658, -22.888567 ], [ -42.9396989, -22.8889421 ], [ -42.940746, -22.8893597 ], [ -42.942198, -22.8899042 ], [ -42.943873, -22.8904342 ], [ -42.9440173, -22.8904798 ], [ -42.9468148, -22.8912928 ], [ -42.9476432, -22.8915199 ], [ -42.9484511, -22.8917414 ], [ -42.9559724, -22.8938034 ], [ -42.955501, -22.8960334 ], [ -42.9544835, -22.9008462 ], [ -42.9544716, -22.9009024 ], [ -42.9544661, -22.9009286 ], [ -42.9550885, -22.9006889 ], [ -42.9552818, -22.9006642 ], [ -42.955475, -22.9006396 ], [ -42.955835, -22.9006434 ], [ -42.9559101, -22.9006534 ], [ -42.9562632, -22.9007002 ], [ -42.9567293, -22.900795 ], [ -42.9568137, -22.9008111 ], [ -42.9572699, -22.9008984 ], [ -42.95765, -22.9009276 ], [ -42.9585973, -22.9009731 ], [ -42.9603783, -22.9010451 ], [ -42.9608481, -22.901083 ], [ -42.9611929, -22.901136 ], [ -42.9613216, -22.9011577 ], [ -42.9613499, -22.9011625 ], [ -42.9614117, -22.9011729 ], [ -42.9614484, -22.9011791 ], [ -42.9614847, -22.9011853 ], [ -42.9618207, -22.9012861 ], [ -42.9619015, -22.9013103 ], [ -42.9619155, -22.9013149 ], [ -42.9623436, -22.9014569 ], [ -42.9624919, -22.9015275 ], [ -42.9625856, -22.9015721 ], [ -42.9628791, -22.901712 ], [ -42.9634096, -22.9019999 ], [ -42.9644175, -22.9025228 ], [ -42.9651837, -22.9028924 ], [ -42.9653912, -22.9029788 ], [ -42.9657283, -22.9031192 ], [ -42.9665707, -22.90347 ], [ -42.966926, -22.9036179 ], [ -42.9674944, -22.9038642 ], [ -42.968256, -22.9042507 ], [ -42.9687963, -22.9045687 ], [ -42.9690515, -22.9047188 ], [ -42.9691005, -22.9047476 ], [ -42.9694344, -22.9049441 ], [ -42.9697018, -22.905097 ], [ -42.9699353, -22.9052305 ], [ -42.9704312, -22.9055141 ], [ -42.9705017, -22.9055544 ], [ -42.9708592, -22.9057588 ], [ -42.9710242, -22.9058528 ], [ -42.9723294, -22.9065962 ], [ -42.9725719, -22.9067213 ], [ -42.9727418, -22.906785 ], [ -42.9728144, -22.9068122 ], [ -42.973112, -22.9068857 ], [ -42.9731213, -22.906888 ], [ -42.9733405, -22.906913 ], [ -42.9733866, -22.9069183 ], [ -42.9736115, -22.9069154 ], [ -42.9736783, -22.9069145 ], [ -42.9740118, -22.9068804 ], [ -42.9740478, -22.9068734 ], [ -42.9743854, -22.9068077 ], [ -42.97444, -22.9067971 ], [ -42.9747612, -22.9067283 ], [ -42.9759898, -22.9064598 ], [ -42.9760948, -22.906437 ], [ -42.9765127, -22.9063461 ], [ -42.9769376, -22.9062648 ], [ -42.9775092, -22.9061188 ], [ -42.9775495, -22.9061461 ], [ -42.9777328, -22.9062704 ], [ -42.9779829, -22.9063878 ], [ -42.9782178, -22.9065432 ], [ -42.9784489, -22.9066682 ], [ -42.9786232, -22.9068122 ], [ -42.9787824, -22.9069714 ], [ -42.9789302, -22.9072101 ], [ -42.979006, -22.907445 ], [ -42.9790514, -22.907733 ], [ -42.9791007, -22.9079262 ], [ -42.9791386, -22.9079888 ], [ -42.9791765, -22.9080513 ], [ -42.9793621, -22.9082635 ], [ -42.9796198, -22.9085287 ], [ -42.9797865, -22.9087162 ], [ -42.9799419, -22.9087788 ], [ -42.9801654, -22.9088091 ], [ -42.9803156, -22.9088091 ], [ -42.9805595, -22.9088091 ], [ -42.9810824, -22.9087485 ], [ -42.9812113, -22.9087599 ], [ -42.9814779, -22.9088887 ], [ -42.9817228, -22.9089683 ], [ -42.9819312, -22.9089986 ], [ -42.9823367, -22.9090024 ], [ -42.982528, -22.9089967 ], [ -42.9827194, -22.908991 ], [ -42.982924, -22.9090024 ], [ -42.9831362, -22.9090744 ], [ -42.9834816, -22.9091719 ], [ -42.9837518, -22.9092362 ], [ -42.983799, -22.9092255 ], [ -42.9838462, -22.9092148 ], [ -42.9839105, -22.9091805 ], [ -42.9839791, -22.9091075 ], [ -42.9842837, -22.9087815 ], [ -42.9843997, -22.9086728 ], [ -42.9844424, -22.9086329 ], [ -42.9846226, -22.9084641 ], [ -42.9849357, -22.9081853 ], [ -42.9850447, -22.9080969 ], [ -42.9853218, -22.9078722 ], [ -42.9855705, -22.9076405 ], [ -42.9856478, -22.9075161 ], [ -42.9856907, -22.9073574 ], [ -42.9856649, -22.9071687 ], [ -42.9855748, -22.9068899 ], [ -42.9855357, -22.9067809 ], [ -42.9854161, -22.906448 ], [ -42.9853561, -22.9061306 ], [ -42.985399, -22.9059676 ], [ -42.9854461, -22.9058175 ], [ -42.9854933, -22.9056673 ], [ -42.9856738, -22.9052355 ], [ -42.9856791, -22.9052229 ], [ -42.9857028, -22.9051541 ], [ -42.9857386, -22.9050506 ], [ -42.9858435, -22.9048134 ], [ -42.9859052, -22.9046138 ], [ -42.9859086, -22.9046027 ], [ -42.9859244, -22.9043869 ], [ -42.9859008, -22.9041896 ], [ -42.9858386, -22.904033 ], [ -42.9857378, -22.9038336 ], [ -42.9856134, -22.9036556 ], [ -42.9855019, -22.903499 ], [ -42.9854419, -22.9033789 ], [ -42.9853947, -22.9032159 ], [ -42.9853818, -22.9030722 ], [ -42.9853797, -22.9030046 ], [ -42.9853775, -22.9029371 ], [ -42.9853882, -22.9028041 ], [ -42.9854183, -22.902669 ], [ -42.9854676, -22.9025124 ], [ -42.9856606, -22.9019612 ], [ -42.9857866, -22.901561 ], [ -42.9857936, -22.9015387 ], [ -42.9858027, -22.901508 ], [ -42.985869, -22.9012857 ], [ -42.9859129, -22.9011384 ], [ -42.9859491, -22.9010168 ], [ -42.9859697, -22.9009477 ], [ -42.9859854, -22.9008949 ], [ -42.9860571, -22.9007263 ], [ -42.9861181, -22.9005792 ], [ -42.9861683, -22.9003712 ], [ -42.9862221, -22.9001022 ], [ -42.9862604, -22.8997521 ], [ -42.9862723, -22.8996432 ], [ -42.9863225, -22.8991769 ], [ -42.9863799, -22.8988649 ], [ -42.9864337, -22.898456 ], [ -42.986443, -22.8983767 ], [ -42.9865341, -22.8976024 ], [ -42.9865411, -22.8975287 ], [ -42.9866274, -22.8966197 ], [ -42.9867493, -22.8953143 ], [ -42.9867735, -22.8950788 ], [ -42.9867981, -22.8948399 ], [ -42.9868426, -22.8944069 ], [ -42.9868964, -22.8938904 ], [ -42.9869183, -22.8936775 ], [ -42.9869215, -22.8936465 ], [ -42.9869573, -22.8934134 ], [ -42.9869968, -22.8931265 ], [ -42.9870173, -22.8930241 ], [ -42.9870245, -22.8929878 ], [ -42.9870506, -22.8928575 ], [ -42.9870921, -22.8927066 ], [ -42.9871187, -22.89261 ], [ -42.9872156, -22.8923411 ], [ -42.9872945, -22.8921223 ], [ -42.9873056, -22.8921115 ], [ -42.9873586, -22.8920602 ], [ -42.9874092, -22.8920111 ], [ -42.9875778, -22.8919107 ], [ -42.9877428, -22.8918067 ], [ -42.9877787, -22.8917931 ], [ -42.9879042, -22.8917457 ], [ -42.9881552, -22.8917098 ], [ -42.9884063, -22.8916381 ], [ -42.9885641, -22.8915556 ], [ -42.9887524, -22.8913969 ], [ -42.9888741, -22.8912414 ], [ -42.9889622, -22.8911288 ], [ -42.9891403, -22.8908798 ], [ -42.9892778, -22.8906877 ], [ -42.9894284, -22.890451 ], [ -42.9894679, -22.8900923 ], [ -42.9894822, -22.8900464 ], [ -42.9895217, -22.8899202 ], [ -42.9896257, -22.8897516 ], [ -42.9897118, -22.8895543 ], [ -42.989909, -22.8891562 ], [ -42.9901135, -22.8887546 ], [ -42.9902106, -22.8885933 ], [ -42.9902928, -22.8884569 ], [ -42.9904542, -22.8883278 ], [ -42.9905156, -22.8882962 ], [ -42.9907024, -22.8882003 ], [ -42.9907196, -22.8881915 ], [ -42.9909048, -22.8881297 ], [ -42.9909455, -22.8881162 ], [ -42.9911464, -22.8880839 ], [ -42.9914441, -22.888048 ], [ -42.9920453, -22.8879965 ], [ -42.993431, -22.8878543 ], [ -42.9934868, -22.8878512 ], [ -42.9940476, -22.8878198 ], [ -42.9941985, -22.8878113 ], [ -42.9945751, -22.8878902 ], [ -42.994923, -22.8880086 ], [ -42.9950009, -22.8880544 ], [ -42.9953318, -22.8882489 ], [ -42.9960527, -22.8885681 ], [ -42.9968346, -22.8889339 ], [ -42.9971, -22.8890917 ], [ -42.9973833, -22.8892495 ], [ -42.9974429, -22.8892713 ], [ -42.9977455, -22.8893822 ], [ -42.9982943, -22.8895077 ], [ -42.9986806, -22.8895629 ], [ -42.9989205, -22.8895847 ], [ -42.9992196, -22.8896117 ], [ -42.9996751, -22.8897121 ], [ -43.0000552, -22.8898484 ], [ -43.0004569, -22.889974 ], [ -43.0007905, -22.8901533 ], [ -43.0008491, -22.8901861 ], [ -43.0014504, -22.8905227 ], [ -43.0018513, -22.8907384 ], [ -43.0018754, -22.8907513 ], [ -43.0020171, -22.8908275 ], [ -43.0022134, -22.8909257 ], [ -43.0022394, -22.8909387 ], [ -43.002356, -22.8909836 ], [ -43.002372, -22.8909897 ], [ -43.0024725, -22.8910284 ], [ -43.0027666, -22.8911073 ], [ -43.0032042, -22.8911754 ], [ -43.0032282, -22.8911784 ], [ -43.0035059, -22.8912131 ], [ -43.003602, -22.8912111 ], [ -43.0039358, -22.8912041 ], [ -43.0044308, -22.8912508 ], [ -43.0047428, -22.8913261 ], [ -43.0051014, -22.8914911 ], [ -43.005392, -22.8916058 ], [ -43.0057291, -22.8917278 ], [ -43.005802, -22.8917548 ], [ -43.0059973, -22.8918272 ], [ -43.0060483, -22.8918461 ], [ -43.0060775, -22.8918521 ], [ -43.0061067, -22.8918582 ], [ -43.0062742, -22.8918927 ], [ -43.0065653, -22.8919436 ], [ -43.006758, -22.8919374 ], [ -43.0068086, -22.8919358 ], [ -43.006966, -22.8919063 ], [ -43.0071184, -22.8918779 ], [ -43.008132, -22.8916883 ], [ -43.0084476, -22.8916453 ], [ -43.0086521, -22.8916058 ], [ -43.0087454, -22.8915752 ], [ -43.0088816, -22.8915305 ], [ -43.0091255, -22.8913835 ], [ -43.0093457, -22.8912303 ], [ -43.0094822, -22.8911011 ], [ -43.0097675, -22.8908311 ], [ -43.0098888, -22.8906844 ], [ -43.0099393, -22.8906233 ], [ -43.0099898, -22.8905621 ], [ -43.010014, -22.8905319 ], [ -43.0102732, -22.8902071 ], [ -43.0103372, -22.8901283 ], [ -43.0103763, -22.8900801 ], [ -43.0104131, -22.8900349 ], [ -43.0105529, -22.8898628 ], [ -43.0106795, -22.8896904 ], [ -43.0108506, -22.8894575 ], [ -43.011342, -22.8887653 ], [ -43.0115141, -22.8885358 ], [ -43.0117472, -22.888256 ], [ -43.0119875, -22.8879763 ], [ -43.0121018, -22.8878659 ], [ -43.0122027, -22.8877683 ], [ -43.0122239, -22.8877526 ], [ -43.0123763, -22.8876402 ], [ -43.0124362, -22.8876103 ], [ -43.0125578, -22.8875495 ], [ -43.0127514, -22.8874706 ], [ -43.0130527, -22.8873737 ], [ -43.0133002, -22.88732 ], [ -43.013458, -22.8872913 ], [ -43.0136158, -22.8872626 ], [ -43.0140498, -22.8871908 ], [ -43.0144712, -22.8871119 ], [ -43.014776, -22.8870492 ], [ -43.0149607, -22.8870008 ], [ -43.0149985, -22.886985 ], [ -43.0151239, -22.8869326 ], [ -43.0152674, -22.8868483 ], [ -43.0153911, -22.8867623 ], [ -43.0154933, -22.8866708 ], [ -43.0156153, -22.8865506 ], [ -43.0157408, -22.8864144 ], [ -43.0158807, -22.8862691 ], [ -43.0160152, -22.8861131 ], [ -43.0160887, -22.8860396 ], [ -43.0161622, -22.885966 ], [ -43.0163397, -22.8858495 ], [ -43.0165406, -22.8857491 ], [ -43.0167038, -22.8856899 ], [ -43.0169423, -22.8856325 ], [ -43.0172238, -22.8855769 ], [ -43.0174623, -22.8855141 ], [ -43.017708, -22.8854388 ], [ -43.0179555, -22.8853348 ], [ -43.0181473, -22.8852236 ], [ -43.0183654, -22.885083 ], [ -43.0185185, -22.8849547 ], [ -43.0187499, -22.8847646 ], [ -43.0189973, -22.8845422 ], [ -43.0192036, -22.8843593 ], [ -43.0194367, -22.884162 ], [ -43.019625, -22.884015 ], [ -43.01971, -22.8839379 ], [ -43.0197392, -22.8839114 ], [ -43.0197427, -22.8839082 ], [ -43.0197792, -22.8838751 ], [ -43.0199244, -22.8837388 ], [ -43.0201271, -22.8835308 ], [ -43.02024, -22.8833889 ], [ -43.0202845, -22.8833329 ], [ -43.0203154, -22.8832941 ], [ -43.0204654, -22.88309 ], [ -43.0204947, -22.8830502 ], [ -43.0205342, -22.8829929 ], [ -43.0207601, -22.8826647 ], [ -43.0208026, -22.882606 ], [ -43.0208445, -22.8825482 ], [ -43.020962, -22.8823862 ], [ -43.0210058, -22.8823258 ], [ -43.0211672, -22.882107 ], [ -43.0212082, -22.8820608 ], [ -43.0212452, -22.8820191 ], [ -43.0212529, -22.8820104 ], [ -43.0213232, -22.8819312 ], [ -43.0215276, -22.881725 ], [ -43.0215661, -22.8816905 ], [ -43.0217213, -22.8815511 ], [ -43.0217698, -22.8815122 ], [ -43.0219472, -22.88137 ], [ -43.0222198, -22.8811727 ], [ -43.0224942, -22.8810095 ], [ -43.0225428, -22.8809819 ], [ -43.0227972, -22.8808374 ], [ -43.0228894, -22.8807891 ], [ -43.0229927, -22.8807351 ], [ -43.0231882, -22.8806329 ], [ -43.0234663, -22.8804827 ], [ -43.0237028, -22.880355 ], [ -43.0240525, -22.8801308 ], [ -43.0245223, -22.8798009 ], [ -43.0246558, -22.8796974 ], [ -43.0247537, -22.8796215 ], [ -43.0247634, -22.8796127 ], [ -43.0249491, -22.8794386 ], [ -43.0250782, -22.8792898 ], [ -43.0255552, -22.8787697 ], [ -43.0255764, -22.8787468 ], [ -43.0256648, -22.8786509 ], [ -43.0258314, -22.8784703 ], [ -43.0261345, -22.8781242 ], [ -43.0263974, -22.8778081 ], [ -43.0265864, -22.8775808 ], [ -43.0268267, -22.8772903 ], [ -43.0272266, -22.8767972 ], [ -43.0273834, -22.8765605 ], [ -43.0274517, -22.876453 ], [ -43.0275459, -22.8763048 ], [ -43.0275691, -22.8762703 ], [ -43.0275924, -22.8762359 ], [ -43.0276534, -22.876148 ], [ -43.0277484, -22.8760494 ], [ -43.0278614, -22.8759756 ], [ -43.0279188, -22.8759382 ], [ -43.0281519, -22.8758414 ], [ -43.0281985, -22.8758234 ], [ -43.0282451, -22.8758055 ], [ -43.0285679, -22.8756836 ], [ -43.0288423, -22.8755849 ], [ -43.0290761, -22.8755056 ], [ -43.0292202, -22.8754567 ], [ -43.0295662, -22.8753529 ], [ -43.0297891, -22.8753212 ], [ -43.0299846, -22.875307 ], [ -43.0301818, -22.8753159 ], [ -43.0302664, -22.875331 ], [ -43.030351, -22.8753461 ], [ -43.0306911, -22.8754415 ], [ -43.0310568, -22.875554 ], [ -43.031089, -22.8755639 ], [ -43.0310956, -22.8755659 ], [ -43.0311339, -22.8755768 ], [ -43.0314515, -22.8756674 ], [ -43.0319697, -22.8758019 ], [ -43.0323565, -22.8759117 ], [ -43.0324198, -22.8759301 ], [ -43.0324658, -22.8759435 ], [ -43.0327265, -22.8760193 ], [ -43.0328669, -22.876061 ], [ -43.0329883, -22.8761175 ], [ -43.0330887, -22.8761839 ], [ -43.0332124, -22.8762789 ], [ -43.0333593, -22.8764087 ], [ -43.0333803, -22.8764272 ], [ -43.0335962, -22.8766178 ], [ -43.0338151, -22.8768103 ], [ -43.034095, -22.8770432 ], [ -43.0341134, -22.8770559 ], [ -43.0341816, -22.8771032 ], [ -43.0342785, -22.8771703 ], [ -43.0344714, -22.8772338 ], [ -43.0346149, -22.877255 ], [ -43.0347431, -22.8772321 ], [ -43.0347466, -22.8772314 ], [ -43.0349654, -22.8771044 ], [ -43.0351042, -22.8770127 ], [ -43.0353724, -22.8768786 ], [ -43.035577, -22.8767798 ], [ -43.0357864, -22.8766904 ], [ -43.0362075, -22.8765257 ], [ -43.0364663, -22.8764316 ], [ -43.0369032, -22.8762163 ], [ -43.0369654, -22.8761859 ], [ -43.0371689, -22.8760865 ], [ -43.0374554, -22.8759465 ], [ -43.0379272, -22.8757141 ], [ -43.0380307, -22.8756082 ], [ -43.0381201, -22.8754765 ], [ -43.0381977, -22.8753753 ], [ -43.0382847, -22.8752836 ], [ -43.0383506, -22.8752224 ], [ -43.0384776, -22.8751495 ], [ -43.0386282, -22.8750625 ], [ -43.0386589, -22.8750441 ], [ -43.0388211, -22.8749472 ], [ -43.038927, -22.8748884 ], [ -43.0390723, -22.8748442 ], [ -43.0390759, -22.8748432 ], [ -43.0392116, -22.8748084 ], [ -43.0395127, -22.8747284 ], [ -43.0396492, -22.8746861 ], [ -43.0397738, -22.8745943 ], [ -43.0398327, -22.8745379 ], [ -43.0399009, -22.8744179 ], [ -43.0399625, -22.8742623 ], [ -43.0400089, -22.8741075 ], [ -43.040035, -22.8740203 ], [ -43.0400865, -22.8738734 ], [ -43.0400959, -22.8738467 ], [ -43.0401264, -22.8737596 ], [ -43.0401584, -22.8736662 ], [ -43.0401926, -22.8735663 ], [ -43.0401982, -22.8735564 ], [ -43.0402027, -22.8735484 ], [ -43.0402038, -22.8735464 ], [ -43.0402344, -22.873492 ], [ -43.0402508, -22.8734628 ], [ -43.0403008, -22.8733734 ], [ -43.0403855, -22.8732863 ], [ -43.0405134, -22.873211 ], [ -43.0405172, -22.8732087 ], [ -43.0405699, -22.873178 ], [ -43.0407148, -22.8730934 ], [ -43.0410148, -22.8728864 ], [ -43.041143, -22.8727958 ], [ -43.0411712, -22.8727758 ], [ -43.0411994, -22.8727559 ], [ -43.0412618, -22.8726453 ], [ -43.0412768, -22.872631 ], [ -43.0412781, -22.8726299 ], [ -43.0412944, -22.8726144 ], [ -43.0413669, -22.872591 ], [ -43.0413757, -22.8725882 ], [ -43.0414935, -22.8725524 ], [ -43.0416123, -22.8725289 ], [ -43.0416711, -22.8725253 ], [ -43.0417652, -22.8725242 ], [ -43.0418346, -22.8725336 ], [ -43.0418793, -22.8725477 ], [ -43.0419275, -22.8725736 ], [ -43.0419418, -22.8725813 ], [ -43.0422004, -22.8727218 ], [ -43.0423558, -22.8727772 ], [ -43.0424746, -22.8727883 ], [ -43.0426721, -22.8727806 ], [ -43.0429167, -22.8727523 ], [ -43.0430755, -22.8727218 ], [ -43.0431743, -22.8726994 ], [ -43.0432814, -22.8726582 ], [ -43.0433872, -22.8726159 ], [ -43.0434402, -22.8725559 ], [ -43.0434837, -22.87247 ], [ -43.0435284, -22.8723336 ], [ -43.0436189, -22.8723524 ], [ -43.0436675, -22.8723612 ], [ -43.0437166, -22.8723701 ], [ -43.0438274, -22.8723726 ], [ -43.0439753, -22.8723807 ], [ -43.0443706, -22.8723948 ], [ -43.0447281, -22.8723854 ], [ -43.0449886, -22.8723765 ], [ -43.0451422, -22.8723712 ], [ -43.045735, -22.8723289 ], [ -43.0458452, -22.8723217 ], [ -43.0464548, -22.8722818 ], [ -43.0467334, -22.8721577 ], [ -43.0471935, -22.8719525 ], [ -43.0475135, -22.8718302 ], [ -43.0477371, -22.8717498 ], [ -43.0478146, -22.871722 ], [ -43.047944, -22.8716937 ], [ -43.0480087, -22.8716796 ], [ -43.0480733, -22.8716655 ], [ -43.0484168, -22.871642 ], [ -43.048652, -22.8716937 ], [ -43.0491837, -22.8718678 ], [ -43.0499835, -22.8721548 ], [ -43.0501953, -22.872263 ], [ -43.0503508, -22.872388 ], [ -43.0504823, -22.8724936 ], [ -43.0513056, -22.8731899 ], [ -43.0514044, -22.8732511 ], [ -43.0515146, -22.873252 ], [ -43.0517305, -22.873207 ], [ -43.0517785, -22.873197 ], [ -43.051942, -22.8731628 ], [ -43.0521055, -22.8731287 ], [ -43.0523242, -22.8730393 ], [ -43.0525152, -22.8729613 ], [ -43.052543, -22.8729499 ], [ -43.0526654, -22.8728888 ], [ -43.0527093, -22.8729241 ], [ -43.0528583, -22.873044 ], [ -43.0530465, -22.8727994 ], [ -43.0531559, -22.8726136 ], [ -43.0532958, -22.8723759 ], [ -43.053363, -22.8722775 ], [ -43.0534981, -22.8720795 ], [ -43.0536581, -22.8718725 ], [ -43.0538386, -22.8717597 ], [ -43.0539216, -22.8717078 ], [ -43.0540204, -22.8716537 ], [ -43.0541192, -22.8715996 ], [ -43.0544673, -22.8715008 ], [ -43.0550178, -22.871355 ], [ -43.0559306, -22.8710986 ], [ -43.0565846, -22.8709715 ], [ -43.0571569, -22.870895 ], [ -43.0572802, -22.8708785 ], [ -43.0573232, -22.8708727 ], [ -43.0577232, -22.8708492 ], [ -43.0580854, -22.870901 ], [ -43.0587561, -22.8710247 ], [ -43.0592099, -22.8710421 ], [ -43.0596192, -22.8709715 ], [ -43.0599909, -22.8708774 ], [ -43.0604144, -22.8707222 ], [ -43.0609319, -22.8705104 ], [ -43.061346, -22.8703222 ], [ -43.0618204, -22.8701341 ], [ -43.0618917, -22.8701058 ], [ -43.0623105, -22.8699835 ], [ -43.0626445, -22.8699176 ], [ -43.0630397, -22.8699129 ], [ -43.0634067, -22.8698894 ], [ -43.0635921, -22.869837 ], [ -43.063718, -22.8698014 ], [ -43.0638631, -22.8698 ], [ -43.064056, -22.8698706 ], [ -43.0643289, -22.8699647 ], [ -43.0645782, -22.8699647 ], [ -43.0647241, -22.8699176 ], [ -43.0648323, -22.8698235 ], [ -43.0648746, -22.8696588 ], [ -43.0649687, -22.86956 ], [ -43.0651052, -22.8695271 ], [ -43.0652382, -22.8695559 ], [ -43.0653875, -22.8695883 ], [ -43.0658203, -22.8696636 ], [ -43.066272, -22.8696918 ], [ -43.0664931, -22.8697059 ], [ -43.0666813, -22.8696636 ], [ -43.0668167, -22.8695829 ], [ -43.0669025, -22.8695318 ], [ -43.0671283, -22.869513 ], [ -43.0673212, -22.8695553 ], [ -43.0674153, -22.8695553 ], [ -43.0675329, -22.8694283 ], [ -43.0676459, -22.8693201 ], [ -43.0678043, -22.8692518 ], [ -43.0680223, -22.8691605 ], [ -43.0682402, -22.8690136 ], [ -43.0686104, -22.8687743 ], [ -43.0688534, -22.8686335 ], [ -43.0690358, -22.8684966 ], [ -43.069071, -22.8684658 ], [ -43.0692031, -22.8683497 ], [ -43.0692486, -22.8682783 ], [ -43.0693401, -22.8681344 ], [ -43.0693733, -22.8680965 ], [ -43.0694554, -22.8680026 ], [ -43.0695376, -22.8679088 ], [ -43.0695631, -22.8678898 ], [ -43.0696703, -22.8678101 ], [ -43.0696856, -22.8677988 ], [ -43.0697149, -22.867777 ], [ -43.0697256, -22.8677684 ], [ -43.069872, -22.8676503 ], [ -43.0700697, -22.8675388 ], [ -43.0702288, -22.8674465 ], [ -43.0703231, -22.8673918 ], [ -43.0705106, -22.8672803 ], [ -43.0706427, -22.8671797 ], [ -43.0707235, -22.8671182 ], [ -43.0708806, -22.8669712 ], [ -43.0710326, -22.8668901 ], [ -43.0712657, -22.8667533 ], [ -43.0714988, -22.866581 ], [ -43.0717472, -22.8664847 ], [ -43.0720411, -22.8664745 ], [ -43.07220559880929, -22.866469126655971 ], [ -43.07220559880929, -22.861302094116311 ] ], [ [ -43.038872265842372, -22.852968761099433 ], [ -43.04720559885925, -22.852968761099433 ], [ -43.04720559885925, -22.861302094116311 ], [ -43.055538931876129, -22.861302094116311 ], [ -43.055538931876129, -22.869635428032566 ], [ -43.038872265842372, -22.869635428032566 ], [ -43.038872265842372, -22.852968761099433 ] ] ], [ [ [ -42.897205599159008, -22.869635428032566 ], [ -42.897205599159008, -22.861302094116311 ], [ -42.88887226614213, -22.861302094116311 ], [ -42.88887226614213, -22.860190741224372 ], [ -42.8867643, -22.86556 ], [ -42.8859505, -22.8676329 ], [ -42.8869242, -22.8682801 ], [ -42.8873569, -22.8686571 ], [ -42.8877895, -22.869034 ], [ -42.8885647, -22.8694706 ], [ -42.889398768926092, -22.869635428032566 ], [ -42.897205599159008, -22.869635428032566 ] ] ], [ [ [ -43.030538931926117, -22.777968761249269 ], [ -43.030538931926117, -22.761302095215498 ], [ -43.013872265892246, -22.761302095215498 ], [ -43.013872265892246, -22.769635428232377 ], [ -43.022205598909238, -22.769635428232377 ], [ -43.022205598909238, -22.777968761249269 ], [ -43.030538931926117, -22.777968761249269 ] ] ] ] } }
]
}
