{
"type": "FeatureCollection",
"name": "uc_federal",
"crs": { "type": "name", "properties": { "name": "urn:ogc:def:crs:EPSG::4674" } },
"features": [
{ "type": "Feature", "properties": { "id": 0, "nome_uc": "Área de Proteção Ambiental de Guapi-Mirim", "cnuc": "0000.00.0016", "area_km2": 138.9, "ano_criacao": "1984", "ato_criacao": "DEC 90.225 de 25/09/1984", "esfera_admin": "Federal", "sigla_categ": "APA", "grupo_manejo": "Uso Sustentável", "bioma": "MATA ATLÂNTICA" }, "geometry": { "type": "MultiPolygon", "coordinates": [ [ [ [ -42.98541258, -22.77321388 ], [ -42.98549976, -22.77339162 ], [ -42.98576083, -22.77330677 ], [ -42.98596019, -22.7733272 ], [ -42.98606897, -22.77337636 ], [ -42.98619592, -22.77350339 ], [ -42.98631696, -22.77359451 ], [ -42.98650336, -22.77362076 ], [ -42.98663948, -22.77356274 ], [ -42.9868077, -22.77351111 ], [ -42.98692326, -22.77353646 ], [ -42.98708964, -22.77361023 ], [ -42.9872569, -22.77362429 ], [ -42.98741825, -22.77360243 ], [ -42.98755436, -22.77354442 ], [ -42.98774128, -22.77353483 ], [ -42.98801749, -22.7735861 ], [ -42.98826838, -22.77360718 ], [ -42.98851309, -22.77361027 ], [ -42.98868696, -22.77361246 ], [ -42.98879626, -22.77362578 ], [ -42.98893123, -22.7736454 ], [ -42.9891179, -22.77365373 ], [ -42.98963448, -22.77356467 ], [ -42.98993933, -22.77341919 ], [ -42.99007102, -22.77322375 ], [ -42.99008043, -22.77302079 ], [ -42.99009098, -22.7727402 ], [ -42.99017281, -22.77243064 ], [ -42.99020842, -22.77219815 ], [ -42.99046957, -22.77107855 ], [ -42.99067392, -22.77017165 ], [ -42.99090563, -22.76930254 ], [ -42.99107726, -22.769018 ], [ -42.99167564, -22.76861938 ], [ -42.99202809, -22.76830128 ], [ -42.99215933, -22.76813569 ], [ -42.99214889, -22.76796832 ], [ -42.99202308, -22.76776366 ], [ -42.99193519, -22.76760726 ], [ -42.99177561, -22.76750969 ], [ -42.99155728, -22.76746513 ], [ -42.99134481, -22.76749572 ], [ -42.9910404, -22.76753213 ], [ -42.9909008, -22.76743298 ], [ -42.99086365, -22.76733097 ], [ -42.99086505, -22.76723542 ], [ -42.99089317, -22.76707451 ], [ -42.99093346, -22.76696153 ], [ -42.991052, -22.76678384 ], [ -42.99116939, -22.76668378 ], [ -42.99146214, -22.76648439 ], [ -42.9916964, -22.7663201 ], [ -42.99186123, -22.76605936 ], [ -42.99204558, -22.76534494 ], [ -42.99210429, -22.7649368 ], [ -42.99212569, -22.76486423 ], [ -42.9921671, -22.76452222 ], [ -42.99227372, -22.76427867 ], [ -42.99442087, -22.76772393 ], [ -43.01571529, -22.77742135 ], [ -43.01820774, -22.77262864 ], [ -43.00014877, -22.75735073 ], [ -43.00570679, -22.75040986 ], [ -43.01445413, -22.75150968 ], [ -43.01489948, -22.75197999 ], [ -43.01553611, -22.75248963 ], [ -43.01630326, -22.75288143 ], [ -43.01710099, -22.75293912 ], [ -43.01744096, -22.75294334 ], [ -43.01778397, -22.75273736 ], [ -43.01805705, -22.75273597 ], [ -43.01857311, -22.7528354 ], [ -43.01878926, -22.75297124 ], [ -43.01911402, -22.75339416 ], [ -43.01949038, -22.75373331 ], [ -43.01987779, -22.75377913 ], [ -43.02000825, -22.75382781 ], [ -43.0203329, -22.75396636 ], [ -43.02062242, -22.75434553 ], [ -43.02088968, -22.75459165 ], [ -43.02111484, -22.75541546 ], [ -43.02178748, -22.75580778 ], [ -43.0234547, -22.75658241 ], [ -43.02362077, -22.75664116 ], [ -43.02404906, -22.75630321 ], [ -43.02480623, -22.75595898 ], [ -43.02550527, -22.75581145 ], [ -43.02565405, -22.75577711 ], [ -43.02577613, -22.75577329 ], [ -43.02603553, -22.75576756 ], [ -43.02695752, -22.75540262 ], [ -43.02845355, -22.75488381 ], [ -43.0286486, -22.75477956 ], [ -43.02907585, -22.75456403 ], [ -43.02936694, -22.75443655 ], [ -43.03011389, -22.75445726 ], [ -43.03054591, -22.75451037 ], [ -43.03095526, -22.75470655 ], [ -43.03152522, -22.75520097 ], [ -43.03264179, -22.75638066 ], [ -43.03328497, -22.75646326 ], [ -43.03360394, -22.75653049 ], [ -43.03385191, -22.75653812 ], [ -43.03427534, -22.75657438 ], [ -43.03443525, -22.75659708 ], [ -43.03477693, -22.75695169 ], [ -43.03500965, -22.75725081 ], [ -43.0351197, -22.75748153 ], [ -43.0353527, -22.75776154 ], [ -43.03557608, -22.75799365 ], [ -43.03567473, -22.75830068 ], [ -43.03608356, -22.75853508 ], [ -43.03655393, -22.75878934 ], [ -43.03682582, -22.75923229 ], [ -43.03728207, -22.75975397 ], [ -43.03775177, -22.760056 ], [ -43.03809866, -22.76029918 ], [ -43.03772836, -22.76097316 ], [ -43.03719321, -22.76164511 ], [ -43.0370435, -22.76202554 ], [ -43.03730646, -22.76237282 ], [ -43.03789174, -22.76272369 ], [ -43.03822049, -22.76331106 ], [ -43.03832877, -22.76366599 ], [ -43.03830257, -22.76405749 ], [ -43.03809889, -22.76460928 ], [ -43.03793737, -22.76509469 ], [ -43.03799086, -22.76567831 ], [ -43.03810986, -22.7660047 ], [ -43.03821445, -22.76661762 ], [ -43.03851413, -22.76728072 ], [ -43.03881339, -22.76759359 ], [ -43.03917444, -22.76794825 ], [ -43.03926123, -22.76828934 ], [ -43.03916092, -22.7688942 ], [ -43.03909091, -22.76946674 ], [ -43.03856453, -22.77024393 ], [ -43.03825862, -22.77073712 ], [ -43.03820259, -22.7710518 ], [ -43.03831519, -22.77140596 ], [ -43.038513, -22.77168636 ], [ -43.03871607, -22.77189911 ], [ -43.03888973, -22.77200637 ], [ -43.03906448, -22.77203718 ], [ -43.03957023, -22.77200869 ], [ -43.03982581, -22.77194766 ], [ -43.0400013, -22.77186373 ], [ -43.04031027, -22.77181413 ], [ -43.04055444, -22.77170351 ], [ -43.04068572, -22.77168432 ], [ -43.04094346, -22.77180223 ], [ -43.04110491, -22.77204313 ], [ -43.04128868, -22.77288638 ], [ -43.04137931, -22.77520023 ], [ -43.0416664, -22.77602563 ], [ -43.04211064, -22.77667139 ], [ -43.04252507, -22.77724032 ], [ -43.04283264, -22.77807553 ], [ -43.04304134, -22.77933958 ], [ -43.04317769, -22.77989555 ], [ -43.0434284, -22.78019755 ], [ -43.04366728, -22.78075964 ], [ -43.04372451, -22.78099806 ], [ -43.04375121, -22.7811392 ], [ -43.04378935, -22.78128796 ], [ -43.04377819, -22.78187161 ], [ -43.04389966, -22.782026 ], [ -43.04412473, -22.78214344 ], [ -43.04430054, -22.78207572 ], [ -43.0449239, -22.78175186 ], [ -43.04578966, -22.7810266 ], [ -43.04714391, -22.78073736 ], [ -43.04837599, -22.7803415 ], [ -43.04942911, -22.77948472 ], [ -43.05059067, -22.77897329 ], [ -43.05304135, -22.77565523 ], [ -43.06103831, -22.7632594 ], [ -43.0613763, -22.7634578 ], [ -43.06191115, -22.76389436 ], [ -43.06221654, -22.76416088 ], [ -43.06258633, -22.76442818 ], [ -43.06284071, -22.76465824 ], [ -43.06310949, -22.76478097 ], [ -43.06348094, -22.76478355 ], [ -43.06359158, -22.76482933 ], [ -43.06386623, -22.76490563 ], [ -43.06415784, -22.7653432 ], [ -43.06428293, -22.76560753 ], [ -43.06448478, -22.76590863 ], [ -43.06460179, -22.76674628 ], [ -43.0650955, -22.76736151 ], [ -43.06536908, -22.7680577 ], [ -43.066396, -22.76922892 ], [ -43.066703, -22.76870297 ], [ -43.06777808, -22.7668611 ], [ -43.10967713, -22.69367713 ], [ -43.10968092, -22.69302099 ], [ -43.10969237, -22.69259374 ], [ -43.10971526, -22.69215504 ], [ -43.10977249, -22.6916229 ], [ -43.10980681, -22.691312 ], [ -43.10982969, -22.6910011 ], [ -43.10980299, -22.69069402 ], [ -43.10978392, -22.69025532 ], [ -43.10978392, -22.6898853 ], [ -43.10971525, -22.68898501 ], [ -43.10976866, -22.68807331 ], [ -43.10994033, -22.68774143 ], [ -43.11016156, -22.68738285 ], [ -43.11020734, -22.68708147 ], [ -43.11020734, -22.68685069 ], [ -43.11020354, -22.68658936 ], [ -43.11021497, -22.68638148 ], [ -43.11045912, -22.68610108 ], [ -43.11056974, -22.68596183 ], [ -43.11075666, -22.68578827 ], [ -43.11087873, -22.68564904 ], [ -43.1110008, -22.68552508 ], [ -43.11109617, -22.68536294 ], [ -43.1111839, -22.68518747 ], [ -43.11126784, -22.68489946 ], [ -43.11132886, -22.6847297 ], [ -43.11138991, -22.68439019 ], [ -43.1114128, -22.68422043 ], [ -43.11140898, -22.6840564 ], [ -43.11130979, -22.68385232 ], [ -43.11116101, -22.68367875 ], [ -43.11099698, -22.68354142 ], [ -43.11084822, -22.68344033 ], [ -43.11074903, -22.68329919 ], [ -43.11063457, -22.68308174 ], [ -43.11064706, -22.68294452 ], [ -43.11071851, -22.68271173 ], [ -43.1107681, -22.68260872 ], [ -43.11081769, -22.68248283 ], [ -43.11088636, -22.68198692 ], [ -43.11106563, -22.68118202 ], [ -43.11108473, -22.68098747 ], [ -43.09182034, -22.68373982 ], [ -43.091477, -22.68335142 ], [ -43.09113436, -22.68312299 ], [ -43.09082027, -22.68296119 ], [ -43.09017306, -22.68295167 ], [ -43.08942115, -22.68298022 ], [ -43.08895478, -22.68306588 ], [ -43.08873586, -22.68308492 ], [ -43.0884884, -22.68306588 ], [ -43.08828853, -22.68288504 ], [ -43.08820287, -22.68263758 ], [ -43.08790781, -22.68249481 ], [ -43.08765083, -22.68241867 ], [ -43.08733674, -22.68226638 ], [ -43.08721301, -22.68215217 ], [ -43.08725337, -22.68182468 ], [ -43.08717494, -22.68126701 ], [ -43.08703707, -22.68079096 ], [ -43.08702671, -22.68078284 ], [ -43.08665146, -22.68064835 ], [ -43.08625171, -22.68041992 ], [ -43.08586148, -22.68015342 ], [ -43.08562353, -22.68005824 ], [ -43.08509053, -22.67989644 ], [ -43.08481451, -22.67977271 ], [ -43.08468126, -22.67962042 ], [ -43.0845956, -22.67939199 ], [ -43.0845385, -22.67912549 ], [ -43.08451946, -22.67893514 ], [ -43.08455753, -22.67873526 ], [ -43.08467175, -22.67862105 ], [ -43.08487413, -22.67852493 ], [ -43.08510957, -22.67858298 ], [ -43.08541414, -22.67855442 ], [ -43.08573774, -22.67847828 ], [ -43.08608039, -22.67828792 ], [ -43.08630881, -22.67796432 ], [ -43.08651821, -22.67761216 ], [ -43.08660387, -22.67712675 ], [ -43.08666097, -22.67661278 ], [ -43.08658483, -22.67630821 ], [ -43.0863131, -22.67523365 ], [ -43.08622744, -22.67484342 ], [ -43.08621792, -22.6744056 ], [ -43.08618937, -22.67352044 ], [ -43.08618937, -22.67324442 ], [ -43.08612274, -22.67283515 ], [ -43.08601804, -22.67264479 ], [ -43.08585406, -22.67232621 ], [ -43.08566715, -22.672166 ], [ -43.08522806, -22.67180722 ], [ -43.08500915, -22.67169301 ], [ -43.08482831, -22.67156928 ], [ -43.08474265, -22.6714741 ], [ -43.08474265, -22.67133133 ], [ -43.08485687, -22.6712076 ], [ -43.08542067, -22.67112442 ], [ -43.08572366, -22.67108634 ], [ -43.08599492, -22.67110062 ], [ -43.08631377, -22.67119104 ], [ -43.08656123, -22.67134333 ], [ -43.08696098, -22.67162886 ], [ -43.08734169, -22.67188108 ], [ -43.08769861, -22.67204765 ], [ -43.08806505, -22.67225228 ], [ -43.08824113, -22.6723427 ], [ -43.08847432, -22.67247595 ], [ -43.08879316, -22.67272817 ], [ -43.08900731, -22.67291853 ], [ -43.0891834, -22.67310889 ], [ -43.08943562, -22.67340394 ], [ -43.08956411, -22.6735943 ], [ -43.08973067, -22.67382748 ], [ -43.08986868, -22.67392742 ], [ -43.09007807, -22.67396073 ], [ -43.09027795, -22.67401308 ], [ -43.09051047, -22.67390115 ], [ -43.09069131, -22.67373935 ], [ -43.09084359, -22.67353947 ], [ -43.09091022, -22.67331104 ], [ -43.09094829, -22.6730731 ], [ -43.09096732, -22.67288274 ], [ -43.0909007, -22.67268287 ], [ -43.09070149, -22.67249498 ], [ -43.09054921, -22.6723189 ], [ -43.09042071, -22.67214282 ], [ -43.09033981, -22.67190012 ], [ -43.09030174, -22.67162886 ], [ -43.09022084, -22.67134808 ], [ -43.09008759, -22.67106731 ], [ -43.08994006, -22.67072942 ], [ -43.08987344, -22.67061521 ], [ -43.08991627, -22.67045817 ], [ -43.09005242, -22.67037324 ], [ -43.09038205, -22.67043199 ], [ -43.09068543, -22.67059261 ], [ -43.09094122, -22.67081865 ], [ -43.09120296, -22.67106255 ], [ -43.0914766, -22.67118152 ], [ -43.09174429, -22.67116963 ], [ -43.09198818, -22.67115773 ], [ -43.09230346, -22.67113988 ], [ -43.09248787, -22.67112204 ], [ -43.09268418, -22.67112798 ], [ -43.09295782, -22.67116368 ], [ -43.09320171, -22.67111609 ], [ -43.09346345, -22.67102686 ], [ -43.09360622, -22.67089599 ], [ -43.09368355, -22.67071753 ], [ -43.09368355, -22.67057476 ], [ -43.09356458, -22.6703963 ], [ -43.09317792, -22.67014051 ], [ -43.09276151, -22.66987877 ], [ -43.09238674, -22.66965867 ], [ -43.09198818, -22.66940288 ], [ -43.09166696, -22.66914708 ], [ -43.09138737, -22.66900432 ], [ -43.09107209, -22.66887939 ], [ -43.09095312, -22.66887345 ], [ -43.09081035, -22.66891509 ], [ -43.09065569, -22.66899242 ], [ -43.09045938, -22.66914113 ], [ -43.09029727, -22.66925882 ], [ -43.09021637, -22.66924455 ], [ -43.09010691, -22.66924455 ], [ -43.09003077, -22.66922551 ], [ -43.08987477, -22.66920386 ], [ -43.0897833, -22.66919696 ], [ -43.08973571, -22.66915413 ], [ -43.08966909, -22.6690875 ], [ -43.08961198, -22.66901136 ], [ -43.08958819, -22.66892094 ], [ -43.08958343, -22.66887811 ], [ -43.08962138, -22.66875536 ], [ -43.08963102, -22.66857354 ], [ -43.08963102, -22.66847836 ], [ -43.08961198, -22.66834987 ], [ -43.08958343, -22.66824517 ], [ -43.08946921, -22.66805481 ], [ -43.08934072, -22.66795012 ], [ -43.08922175, -22.66785494 ], [ -43.08918368, -22.66782163 ], [ -43.08907898, -22.66776452 ], [ -43.08899808, -22.66772169 ], [ -43.08890766, -22.66770741 ], [ -43.08875538, -22.66769314 ], [ -43.08865544, -22.6676979 ], [ -43.08857454, -22.66770265 ], [ -43.08852219, -22.66770265 ], [ -43.08846032, -22.66770265 ], [ -43.08841273, -22.66770265 ], [ -43.08830328, -22.66766458 ], [ -43.08818431, -22.66755037 ], [ -43.08805581, -22.66744091 ], [ -43.08799395, -22.66734098 ], [ -43.08797967, -22.66725532 ], [ -43.08795588, -22.66718393 ], [ -43.08793684, -22.66713158 ], [ -43.08791305, -22.66708875 ], [ -43.08785594, -22.66702689 ], [ -43.08780835, -22.66698882 ], [ -43.08774173, -22.66692219 ], [ -43.08765131, -22.66689364 ], [ -43.08751806, -22.66691267 ], [ -43.08740384, -22.66696026 ], [ -43.08731818, -22.66700785 ], [ -43.08726107, -22.66706496 ], [ -43.08718017, -22.66711731 ], [ -43.08711831, -22.66719345 ], [ -43.08705168, -22.66725056 ], [ -43.0866427, -22.66762154 ], [ -43.08642826, -22.66771693 ], [ -43.08632357, -22.667755 ], [ -43.08622363, -22.66778356 ], [ -43.08619032, -22.66779307 ], [ -43.08609038, -22.66780735 ], [ -43.08599996, -22.66781687 ], [ -43.0859143, -22.66779783 ], [ -43.08574458, -22.66774419 ], [ -43.08563155, -22.66765496 ], [ -43.08548687, -22.66746671 ], [ -43.06359111, -22.6787063 ], [ -43.06331166, -22.67817516 ], [ -43.06181553, -22.67546078 ], [ -43.06102436, -22.67389034 ], [ -43.06022129, -22.67264112 ], [ -43.05941227, -22.67138596 ], [ -43.05919812, -22.6707554 ], [ -43.05896612, -22.67021407 ], [ -43.05865085, -22.66967275 ], [ -43.05850808, -22.66945265 ], [ -43.05827608, -22.66926229 ], [ -43.05810357, -22.6692028 ], [ -43.05744922, -22.6689946 ], [ -43.05691384, -22.66872096 ], [ -43.05645579, -22.66821533 ], [ -43.05628923, -22.66794764 ], [ -43.0561881, -22.66754313 ], [ -43.05616324, -22.66745907 ], [ -43.05593826, -22.66709698 ], [ -43.0555278, -22.66661514 ], [ -43.05516494, -22.66626417 ], [ -43.05464276, -22.66578979 ], [ -43.05378782, -22.66525587 ], [ -43.05331788, -22.66493762 ], [ -43.05307398, -22.66476511 ], [ -43.05284199, -22.66455096 ], [ -43.05258025, -22.66426542 ], [ -43.05233338, -22.66389066 ], [ -43.05198241, -22.66329876 ], [ -43.05165889, -22.66268861 ], [ -43.05120313, -22.66234995 ], [ -43.0503614, -22.6617997 ], [ -43.05061774, -22.66139285 ], [ -43.05069828, -22.66125545 ], [ -43.0511699, -22.66035801 ], [ -43.05143992, -22.65991702 ], [ -43.05155928, -22.65975531 ], [ -43.05065415, -22.65984582 ], [ -43.05042702, -22.66082477 ], [ -43.05028426, -22.66113886 ], [ -43.04997017, -22.66160999 ], [ -43.04901125, -22.6624834 ], [ -43.04834024, -22.66317345 ], [ -43.04756454, -22.66380638 ], [ -43.04676504, -22.66432035 ], [ -43.04607024, -22.66456781 ], [ -43.04577574, -22.66469884 ], [ -43.04572074, -22.66472331 ], [ -43.04540418, -22.66489215 ], [ -43.04503279, -22.66514364 ], [ -43.04485195, -22.66539586 ], [ -43.04477581, -22.66569092 ], [ -43.04487575, -22.66677119 ], [ -43.04494713, -22.66719474 ], [ -43.04504509, -22.66778603 ], [ -43.04545554, -22.66894602 ], [ -43.04577082, -22.67017144 ], [ -43.04630025, -22.6719144 ], [ -43.04671666, -22.67370494 ], [ -43.04691214, -22.67456689 ], [ -43.0469903, -22.67550738 ], [ -43.04703789, -22.67600707 ], [ -43.04703737, -22.67683793 ], [ -43.04081355, -22.67896395 ], [ -43.04009502, -22.67912615 ], [ -43.03917416, -22.67921895 ], [ -43.0377679, -22.67927605 ], [ -43.03678994, -22.67936171 ], [ -43.03579057, -22.67944023 ], [ -43.0354979, -22.67933316 ], [ -43.03476978, -22.67825526 ], [ -43.03214001, -22.67489589 ], [ -43.01543035, -22.68096292 ], [ -43.0146778, -22.6790141 ], [ -43.01247961, -22.6761198 ], [ -43.01091669, -22.67470271 ], [ -43.00763681, -22.67451858 ], [ -43.0048208, -22.67430432 ], [ -43.00277961, -22.67392049 ], [ -43.00208929, -22.67358934 ], [ -43.00177607, -22.67122015 ], [ -43.00036672, -22.66987656 ], [ -42.99826221, -22.66705951 ], [ -42.99796919, -22.66643651 ], [ -42.99753963, -22.66570839 ], [ -42.99765521, -22.66395952 ], [ -42.99758618, -22.66395261 ], [ -42.99689613, -22.66391511 ], [ -42.99632082, -22.66394481 ], [ -42.99579329, -22.66401775 ], [ -42.99528397, -22.6641349 ], [ -42.99465698, -22.66430869 ], [ -42.9942861, -22.66445553 ], [ -42.99395284, -22.66461212 ], [ -42.99341904, -22.66488682 ], [ -42.99227785, -22.66546981 ], [ -42.99077781, -22.66624182 ], [ -42.9900145, -22.66663982 ], [ -42.98911182, -22.66711049 ], [ -42.98910996, -22.66711145 ], [ -42.98738126, -22.66799751 ], [ -42.98702818, -22.66817848 ], [ -42.98527071, -22.66907463 ], [ -42.984545, -22.66946758 ], [ -42.98361389, -22.67001021 ], [ -42.98228582, -22.67082466 ], [ -42.98143869, -22.67134827 ], [ -42.98143508, -22.67135047 ], [ -42.98006324, -22.67217148 ], [ -42.97851581, -22.67312158 ], [ -42.97730501, -22.67386643 ], [ -42.97675583, -22.67424731 ], [ -42.97621651, -22.67466792 ], [ -42.97591451, -22.67492321 ], [ -42.97590888, -22.67492785 ], [ -42.97549856, -22.67525714 ], [ -42.97549525, -22.67525976 ], [ -42.97548318, -22.67526866 ], [ -42.97505424, -22.67556833 ], [ -42.97495018, -22.67564102 ], [ -42.97424774, -22.67613392 ], [ -42.97281626, -22.67713244 ], [ -42.97237018, -22.67745922 ], [ -42.97221387, -22.67757374 ], [ -42.97219659, -22.67758547 ], [ -42.97169312, -22.67790162 ], [ -42.9716869, -22.67790542 ], [ -42.97093242, -22.67835361 ], [ -42.96989807, -22.67906568 ], [ -42.96863152, -22.67995626 ], [ -42.96745755, -22.68078943 ], [ -42.96545477, -22.68220009 ], [ -42.96402123, -22.68322652 ], [ -42.96339022, -22.68367832 ], [ -42.96338581, -22.68368141 ], [ -42.96216446, -22.68452214 ], [ -42.96147345, -22.68500786 ], [ -42.96139584, -22.68506294 ], [ -42.96079032, -22.68549263 ], [ -42.96022781, -22.68591076 ], [ -42.95984112, -22.68624013 ], [ -42.95937927, -22.68671614 ], [ -42.9590476, -22.68716153 ], [ -42.9587557, -22.68761794 ], [ -42.95847143, -22.68815836 ], [ -42.95828724, -22.68867292 ], [ -42.95816044, -22.68918662 ], [ -42.95794606, -22.69029738 ], [ -42.95763177, -22.69192573 ], [ -42.95763136, -22.69192781 ], [ -42.95732609, -22.69344122 ], [ -42.95682218, -22.69618544 ], [ -42.9563581, -22.69865028 ], [ -42.95621213, -22.69943036 ], [ -42.95582108, -22.70152013 ], [ -42.95582071, -22.70152205 ], [ -42.95560967, -22.70259541 ], [ -42.95552, -22.70305146 ], [ -42.95530243, -22.7041852 ], [ -42.95490042, -22.70629159 ], [ -42.95455974, -22.70810196 ], [ -42.95446987, -22.70857954 ], [ -42.95446941, -22.70858193 ], [ -42.95428397, -22.70951325 ], [ -42.95404483, -22.71073769 ], [ -42.95392446, -22.71142536 ], [ -42.95379869, -22.71218605 ], [ -42.95373506, -22.71257092 ], [ -42.9537346, -22.71257363 ], [ -42.95351244, -22.71383224 ], [ -42.95351184, -22.7138355 ], [ -42.95351144, -22.71383757 ], [ -42.95342025, -22.71429654 ], [ -42.95335074, -22.71470322 ], [ -42.95328893, -22.7150649 ], [ -42.95327414, -22.7151514 ], [ -42.95327331, -22.71515601 ], [ -42.9532727, -22.71515914 ], [ -42.95312259, -22.71589812 ], [ -42.95291206, -22.71692283 ], [ -42.95279752, -22.71754546 ], [ -42.95279666, -22.71754985 ], [ -42.95254144, -22.71879262 ], [ -42.95229365, -22.7200546 ], [ -42.95206043, -22.72124241 ], [ -42.95204342, -22.72132905 ], [ -42.95195856, -22.72182166 ], [ -42.95194008, -22.72192898 ], [ -42.95190219, -22.72218109 ], [ -42.95181803, -22.72274109 ], [ -42.95175703, -22.72322923 ], [ -42.95174492, -22.72332691 ], [ -42.95709179, -22.72818546 ], [ -42.95594217, -22.72995547 ], [ -42.95661921, -22.73017341 ], [ -42.95696437, -22.73051708 ], [ -42.95742931, -22.7311203 ], [ -42.95771985, -22.73167351 ], [ -42.95823045, -22.73301794 ], [ -42.9588858, -22.73467481 ], [ -42.95928716, -22.73574548 ], [ -42.95954547, -22.73638906 ], [ -42.96080654, -22.73819222 ], [ -42.96231907, -22.74040951 ], [ -42.96328009, -22.74187032 ], [ -42.96524651, -22.74456713 ], [ -42.96568139, -22.74516754 ], [ -42.96622869, -22.74617574 ], [ -42.96663079, -22.74691644 ], [ -42.96683238, -22.74730489 ], [ -42.96740569, -22.74897003 ], [ -42.96833053, -22.75122757 ], [ -42.96903554, -22.7530236 ], [ -42.96918357, -22.75346508 ], [ -42.96932891, -22.7540881 ], [ -42.96994657, -22.75691511 ], [ -42.97047703, -22.76006594 ], [ -42.9716306, -22.7656807 ], [ -42.97217382, -22.76866922 ], [ -42.97313497, -22.7733641 ], [ -42.97381374, -22.77694685 ], [ -42.9739635, -22.77727367 ], [ -42.97396858, -22.77762732 ], [ -42.97402914, -22.77841172 ], [ -42.97425428, -22.77921732 ], [ -42.97456352, -22.77973238 ], [ -42.97529655, -22.77853057 ], [ -42.97655297, -22.77621786 ], [ -42.97655292, -22.77621018 ], [ -42.97655331, -22.77620571 ], [ -42.9765527, -22.77620361 ], [ -42.97655147, -22.77619971 ], [ -42.97654958, -22.776197 ], [ -42.97654576, -22.77619337 ], [ -42.97653516, -22.77618262 ], [ -42.97642964, -22.77611989 ], [ -42.9764249, -22.77611269 ], [ -42.97642269, -22.77610968 ], [ -42.97642176, -22.77610698 ], [ -42.9764215, -22.77610309 ], [ -42.9764255, -22.77608682 ], [ -42.97729595, -22.77453516 ], [ -42.97829967, -22.77274116 ], [ -42.97866798, -22.77234221 ], [ -42.98018566, -22.77057675 ], [ -42.98111111, -22.76966387 ], [ -42.98232797, -22.76890518 ], [ -42.98308549, -22.76857021 ], [ -42.98541258, -22.77321388 ] ] ] ] } }
]
}
